,lat,long,address,name,website,Category,Source
0,41.9556271,-87.6736978,4043 North Ravenswood Ave.,Abundant Venture Partners,http://www.abundantventurepartners.com/,Innovation Center,Innovation Center
1,41.8822787,-87.6363838,One North Wacker Drive,"Adams Street Partners, LLC",http://www.adamsstreetpartners.com/index.html,Innovation Center,Innovation Center
2,41.8898658,-87.6214866,NBC Tower,Anderson Pacific Corporation,http://andersonpacific.com/,Innovation Center,Innovation Center
3,41.883008700000005,-87.6351499,225 West Washington Street,Apex Venture Partners,http://www.apexvc.com/,Innovation Center,Innovation Center
4,41.985371,-87.845028,8725 W. Higgins Rd.,ARCH Venture Partners,http://www.archventure.com/,Innovation Center,Innovation Center
5,41.880271,-87.63472800000001,227 West Monroe Street,Baird Capital,http://www.bairdprivateequity.com/private-equity/baird-venture-partners.aspx,Innovation Center,Innovation Center
6,41.881543,-87.635605,303 W Madison St,Batterson Venture Capital,http://www.battersonvc.com/#&panel1-1,Innovation Center,Innovation Center
7,42.1601073,-87.88319859999999,One Baxter Parkway,Baxter Ventures,http://www.baxter.com/about_baxter/scientific_excellence/baxter_ventures/index.html,Innovation Center,Innovation Center
8,41.886379,-87.6235839,225 N. Michigan Avenue,BlueCross BlueShield Venture Partners,http://www.bcbsvp.com/,Innovation Center,Innovation Center
9,41.8788515,-87.6364782,233 South Wacker Drive,Capital Strategy Management Company,http://capitalstrategymanagement.com/,Innovation Center,Innovation Center
10,41.884620399999996,-87.6365384,155 N Wacker Dr.,CapX Partners,http://www.capxpartners.com/,Innovation Center,Innovation Center
11,40.63722670000001,-89.6621218,4300 Entec Dr.,Central Illinois Angels ,http://www.centralillinoisangels.com/,Innovation Center,Innovation Center
12,42.0458559,-87.67857509999999,500 Davis Street,Ceres Venture Fund,http://www.ceresventurefund.com/,Innovation Center,Innovation Center
13,41.881543,-87.635605,303 West Madison,Chicago Growth Partners,http://cgp.com/,Innovation Center,Innovation Center
14,42.114211,-87.878357,2100 Sanders Road,Cornerstone Angels,http://www.cornerstoneangels.com,Innovation Center,Innovation Center
15,42.114211,-87.878357,2100 Sanders Road,Independence Equity,http://www.independence-equity.com/,Innovation Center,Innovation Center
16,42.107965,-87.7736008,One Northfield Plaza,DFJ Portage,http://www.portageventures.com/,Innovation Center,Innovation Center
17,41.9252396,-87.9434386,845 Larch Avenue,Duchossois Technology Partners,http://www.duchtech.com/,Innovation Center,Innovation Center
18,41.8766109,-87.62899200000001,407 S. Dearborn St.,Dunrath Capital,http://www.dunrath.com/index.asp,Innovation Center,Innovation Center
19,41.8883695,-87.63536450000001,222 W. Merchandise Mart,Energy Foundry,http://energyfoundry.com/,Innovation Center,Innovation Center
20,,,,FireStarter,http://firestarterfund.com/,Innovation Center,Innovation Center
21,41.8816418,-87.6365503,One South Wacker Drive,First Analysis,http://www.firstanalysis.com/,Innovation Center,Innovation Center
22,41.888113,-87.63075500000001,321 North Clark Street,Foley Ventures,http://www.foley.com/CatapultChicago/,Innovation Center,Innovation Center
23,41.884840000000004,-87.64289050000001,156 N. Jefferson Street,Gaebler Ventures,http://www.gaeblervc.com/,Innovation Center,Innovation Center
24,42.025115,-87.760051,5300 Galitz Street,Heartland Angels,http://www.heartlandangels.com/,Innovation Center,Innovation Center
25,41.8822584,-87.63719820000001,20 North Wacker Drive,Hopewell Ventures,http://www.hopewellventures.com/,Innovation Center,Innovation Center
26,41.7893998,-87.5963929,Polsky Center for Entrepreneurship,Hyde Park Angels,http://www.hydeparkangels.com/,Innovation Center,Innovation Center
27,41.883008700000005,-87.6351499,225 W Washington,Hyde Park Venture Partners,http://www.hydeparkvp.com/,Innovation Center,Innovation Center
28,41.8883695,-87.63536450000001,222 Merchandise Mart Plaza,Chicago Ventures,http://www.chicagoventures.com/,Innovation Center,Innovation Center
29,41.8822584,-87.63719820000001,20 N. Wacker Drive ,IllinoisVENTURES,http://www.illinoisventures.com/,Innovation Center,Innovation Center
30,41.8851542,-87.62231829999999,Two Prudential Plaza,JK&B Capital,http://www.jkbcapital.com/,Innovation Center,Innovation Center
31,42.184333,-87.80216290000001,1780 Green Bay Road,"KB Partners, L.L.C.",http://www.kbpartners.com/,Innovation Center,Innovation Center
32,42.143419,-87.79758690000001,400 Skokie Blvd.,Leo Capital Holdings,http://leocapholdings.com/,Innovation Center,Innovation Center
33,41.8969173,-87.6435474,600 West Chicago Avenue,Lightbank,http://lightbank.com/,Innovation Center,Innovation Center
34,41.901462,-87.637771,350 N. Orleans Street,Merrick Ventures,http://www.merrickventures.com/,Innovation Center,Innovation Center
35,42.132361100000004,-87.78775870000001,1033 Skokie Blvd,MK Capital,http://www.mkcapital.com/,Innovation Center,Innovation Center
36,42.067298799999996,-88.04858259999999,1303 East Algonquin Road,Motorola Solutions Venture Capital,http://www.motorolasolutions.com/US-EN/About/Company+Overview/Motorola+Solutions+Venture+Capital,Innovation Center,Innovation Center
37,,,,New Enterprise Associates,http://www.nea.com/,Innovation Center,Innovation Center
38,41.880469,-87.636437,111 South Wacker Drive,Pritzker Group Venture Capital,http://www.pritzkergroup.com/venture-capital/,Innovation Center,Innovation Center
39,41.8910249,-87.6323588,505 N LaSalle Street,OCA Ventures,http://www.ocaventures.com/,Innovation Center,Innovation Center
40,42.132361100000004,-87.78775870000001,1033 Skokie Blvd.,Origin Ventures,http://www.originventures.com/,Innovation Center,Innovation Center
41,42.149708700000005,-87.81650929999999,1535 Lake Cook Rd.,Paradigm Group II,http://www.paradigmventure.com/,Innovation Center,Innovation Center
42,41.885537,-87.624987,180 North Michigan Avenue,Polestar Capital Partners,http://www.polestarvc.com/,Innovation Center,Innovation Center
43,42.106326,-87.778972,550 Woodland Ln. S.,Red Rocket Venture Partners,http://www.redrocketvc.com/,Innovation Center,Innovation Center
44,41.885977600000004,-87.6566872,213 North Racine,Sandbox Industries,http://www.sandboxindustries.com/,Innovation Center,Innovation Center
45,41.885977600000004,-87.6566872,213 North Racine,Cultivian Sandbox,http://www.sandboxindustries.com/about/cultivian-sandbox/,Innovation Center,Innovation Center
46,,,,ScaleWell,http://scalewell.com/,Innovation Center,Innovation Center
47,41.8904448,-87.6246689,430 North Michigan Avenue,Second Century Ventures,http://www.secondcenturyventures.com,Innovation Center,Innovation Center
48,42.194904,-87.85515500000001,2201 Waukegan Road,Seneca Health Partners,http://www.senecapartners.com/,Innovation Center,Innovation Center
49,,,,Stateline Angels,http://www.statelineangels.com/,Innovation Center,Innovation Center
50,,,,Sustainable Local Food Investment Group,http://www.slofig.com/,Innovation Center,Innovation Center
51,41.890345,-87.623333,435 North Michigan Avenue,Tribune Company,http://www.tribune.com/,Innovation Center,Innovation Center
52,,,,Wildcat Angels,http://www.wildcatangels.com/,Innovation Center,Innovation Center
53,40.093918,-88.2453098,1817 South Neil Street,Urbana-Champaign Angel Network,http://www.champaigncountyedc.org/business-services/small-business-services/angel-investing,Innovation Center,Innovation Center
54,,,20 West Kinzie Street,Google Developers Startup Pack,https://docs.google.com/a/istcoalition.org/spreadsheet/viewform?formkey=dEhyN1ZtdkJWRlZMUEhjLUNtLWNJS2c6MA#gid=0,Innovation Center,Innovation Center
55,42.4032967,-71.273513,Reservoir Woods,Battery Ventures,http://www.battery.com/index.html,Innovation Center,Innovation Center
56,39.932390999999996,-86.162898,201 W. 103rd Street,CID CapitalåÊ,http://www.cidcap.com/pages/venture_overview.asp,Innovation Center,Innovation Center
57,42.2814109,-83.7488929,115 West Huron Street,Chrysalis Ventures,http://www.chrysalisventures.com/,Innovation Center,Innovation Center
58,29.732678999999997,-95.432611,One Greenway Plaza,DFJ Mercury,http://www.mercuryfund.com/,Innovation Center,Innovation Center
59,44.972935,-93.46627240000001,601 Carlson Parkway,El Dorado Ventures,http://www.eldorado.com/,Innovation Center,Innovation Center
60,39.100485600000006,-84.5097536,221 East Fourth Street,River Cities Capital,http://www.rccf.com/,Innovation Center,Innovation Center
61,42.283566,-83.748468,320 N. Main St.,RPM Ventures,http://www.rpmvc.com/,Innovation Center,Innovation Center
62,35.9927784,-78.9044725,406 Blackwell Street,Square 1 Bank,http://www.square1financial.com/vcs,Innovation Center,Innovation Center
63,41.870391999999995,-87.66697490000001,"UIC - Molecular Biology Research Building, Room 4070",Chicago Biomedical Consortium,http://chicagobiomedicalconsortium.org/index.php,Innovation Center,Innovation Center
64,41.870391999999995,-87.66697490000001,"UIC - Molecular Biology Research Building, Room 4070",CBC Catalyst Award,http://chicagobiomedicalconsortium.org/grants/catalyst.php,Innovation Center,Innovation Center
65,41.870391999999995,-87.66697490000001,"UIC - Molecular Biology Research Building, Room 4070",CBC Lever Award,http://chicagobiomedicalconsortium.org/grants/lever.php,Innovation Center,Innovation Center
66,41.901353,-87.75119699999999,4950 W. Thomas,Entrepreneurship Training Program,http://www.bethelnewlife.org/?page_id=4058,Innovation Center,Innovation Center
67,41.8883695,-87.63536450000001,222 Merchandise Mart Plaza,1871,http://www.1871.com/,Innovation Center,Innovation Center
68,41.887434000000006,-87.677173,320 North Damen Avenue,Industrial Council of Nearwest Chicago,http://industrialcouncil.com/,Innovation Center,Innovation Center
69,41.887434000000006,-87.677173,320 North Damen Avenue,Fulton-Carroll Center Incubator,http://industrialcouncil.com/incubator,Innovation Center,Innovation Center
70,40.6969219,-89.6167038,1501 W. Bradley Avenue,IMEC - Downstate,http://www.imec.org/,Innovation Center,Innovation Center
71,41.996518,-87.854628,1177 S. Dee Road,IMEC - Chicago Region,http://www.imec.org/,Innovation Center,Innovation Center
72,41.864844500000004,-87.8110162,7600 West Roosevelt Road,The Joseph Center for Business Development,http://www.josephcenter.com/business/,Innovation Center,Innovation Center
73,41.6826648,-88.1076534,590 Territorial Drive,Sivananthan Laboratories,http://www.sivananthanlabs.us/,Innovation Center,Innovation Center
74,41.87636679999999,-88.2558945,Technology Blvd,DuPage National Technology Park,http://www.iltechparks.com/DNTP_DUPAGE.aspx,Innovation Center,Innovation Center
75,41.889424,-87.65375999999999,412 North Carpenter Street,Enerspace,http://www.enerspacechicago.com/,Innovation Center,Innovation Center
76,42.0290604,-87.7509265,4901 Searle Parkway,Illinois Science + Technology Park,http://www.scienceparkillinois.com/,Innovation Center,Innovation Center
77,41.894746000000005,-87.636625,325 W. Huron St. ,Panzanzee,http://www.panzanzee.com/,Innovation Center,Innovation Center
78,41.8848719,-87.62143929999999,Aon Center,Small Business Membership,http://chicagolandchamber.org/wdk_cc/programs_and_advocacy/small_business_membership_new.jsp,Innovation Center,Innovation Center
79,40.093918,-88.2453098,1817 South Neil Street,Champaign County Economic Development Corporation,http://www.champaigncountyedc.org,Innovation Center,Innovation Center
80,40.700006,-89.605733,801 West Main Street,Peoria NEXT Innovation Center,http://www.bradley.edu/sites/pnic/,Innovation Center,Innovation Center
81,40.0911149,-88.24015440000001,60 Hazelwood Drive,Research Park,www.researchpark.illinois.edu,Innovation Center,Innovation Center
82,41.874212,-87.679231,2100 W Harrison Street,Illinois Medical District,http://www.imdc.org/,Innovation Center,Innovation Center
83,41.8723993,-87.6816138,2201 W. Campbell Park Drive,The Chicago Technology Park,http://www.techpark.com/,Innovation Center,Innovation Center
84,41.8723993,-87.6816138,2201 W. Campbell Park Dr.,UIC Incubator Laboratory Facility,http://tigger.uic.edu/depts/ovcr/research/techpark/index.html,Innovation Center,Innovation Center
85,41.8315799,-87.62802059999999,3440 South Dearborn Street,University Technology Park at IIT,http://www.universitytechnologypark.com/,Innovation Center,Innovation Center
86,37.702926,-89.2157219,1740 Innovation Drive,The Southern Illinois Research Park,http://researchpark.siu.edu/,Innovation Center,Innovation Center
87,38.79072120000001,-89.9894748,One North Research Drive,University Park,http://www.siue.edu/universitypark/,Innovation Center,Innovation Center
88,40.151523,-88.275935,3001 Research Rd,Interstate Research Park,https://plus.google.com/105996443330952680694/about?gl=US&hl=en-US,Innovation Center,Innovation Center
89,40.709278000000005,-89.614915,1815 N. University Street,National Center For Agricultural Utilization Research,http://www.ars.usda.gov/Main/docs.htm?docid=3153,Innovation Center,Innovation Center
90,40.709278000000005,-89.614915,1815 N. University Street,NCAUR Pilot Plant,http://www.ars.usda.gov/Main/docs.htm?docid=12750,Innovation Center,Innovation Center
91,41.888113,-87.63075500000001,321 N. Clark St.,Catapult Chicago,http://catapultchicago.com/,Innovation Center,Innovation Center
92,42.298881,-89.0695015,605 Fulton Ave.,EIGERlabåÊ,http://www.eigerlab.org/,Innovation Center,Innovation Center
93,41.8883695,-87.63536450000001,222 W. Merchandise Mart Plaza,Excelerate Labs,http://www.techstars.com/program/locations/chicago/,Innovation Center,Innovation Center
94,41.885977600000004,-87.6566872,213 N Racine Ave,Healthbox,http://healthbox.com/,Innovation Center,Innovation Center
95,41.8883695,-87.63536450000001,222 Merchandise Mart Plaza,Impact Engine,http://www.theimpactengine.com/,Innovation Center,Innovation Center
96,,,,Civic Accelerator,http://www.pointsoflight.org/civic-incubator/civic-accelerator,Innovation Center,Innovation Center
97,,,,Investors' Circle,http://www.investorscircle.net,Innovation Center,Innovation Center
98,41.88318579999999,-87.62814509999998,9 W. Washington Street,OfficePort Chicago,http://www.officeport.us/,Innovation Center,Innovation Center
99,41.962311,-87.674555,4422 N. Ravenswood Ave.,Platform Coworking,http://www.platformcoworking.com/,Innovation Center,Innovation Center
100,41.8827693,-87.6338705,40 N Wells St,Spirtle Space,http://spirtle.com/,Innovation Center,Innovation Center
101,41.8923914,-87.63646059999999,320 W Ohio St,Industrious,http://industriousoffice.com/,Innovation Center,Innovation Center
102,41.887347,-87.62571700000001,65 E Wacker Place,PROPEL,http://www.ibiopropel.org/,Innovation Center,Innovation Center
103,40.306963,-88.1557725,601 S. Century Blvd.,Rantoul Business Incubator,http://rantoulincubator.org/,Innovation Center,Innovation Center
104,41.8823763,-87.6377481,20 N. Upper Wacker Dr.,TechNexus,http://www.technexus.com/,Innovation Center,Innovation Center
105,41.879211,-87.637199,200 South Wacker,ITA Insight Access,http://www.illinoistech.org/page.aspx/collaborationpoint,Innovation Center,Innovation Center
106,41.879211,-87.637199,200 South Wacker,ITA Growth Networks,http://www.illinoistech.org/roundtable.aspx,Innovation Center,Innovation Center
107,41.879211,-87.637199,200 South Wacker,ITA Leadership Forums,http://www.illinoistech.org/page.aspx/growforums,Innovation Center,Innovation Center
108,41.879211,-87.637199,200 South Wacker,ITA Marketplace,http://www.illinoistech.org/page.aspx/marketplace,Innovation Center,Innovation Center
109,41.879211,-87.637199,,ITA Newswire,http://www.illinoistech.org/page.aspx/itanewswire,Innovation Center,Innovation Center
110,41.879211,-87.637199,,ITA Spotlight,http://www.illinoistech.org/page.aspx/spotlight,Innovation Center,Innovation Center
111,41.879211,-87.637199,200 South Wacker,ITA CityLIGHTS Awards,http://www.illinoistech.org/page.aspx/clgala,Innovation Center,Innovation Center
112,41.879211,-87.637199,200 South Wacker,ITA Fall Challenge,http://www.illinoistech.org/page.aspx/Fall_Challenge,Innovation Center,Innovation Center
113,41.895636200000006,-87.63553879999999,230 W Superior St,The Coop,http://coworkchicago.com/,Innovation Center,Innovation Center
114,40.0911149,-88.24015440000001,60 Hazelwood Drive,EnterpriseWorks Incubator,http://www.researchpark.illinois.edu/enterpriseworks,Innovation Center,Innovation Center
115,40.0911149,-88.24015440000001,60 Hazelwood Drive,Women in CU Tech Industry Lunch Forum,http://www.researchpark.illinois.edu/events/cu-women-in-tech,Innovation Center,Innovation Center
116,41.8723993,-87.6816138,2201 West Campbell Park Drive,EnterpriseWorks Chicago,http://www.enterpriseworkschicago.com/,Innovation Center,Innovation Center
117,40.9803273,-90.4072559,2051 Tom L. Wilson Boulevard,Galesburg Business And Technology Center,http://www.sandburg.edu/content/galesburg-business-and-technology-center,Innovation Center,Innovation Center
118,42.0469149,-87.6829905,820 Davis Street,Technology Innovation Center,http://www.theincubator.com/home,Innovation Center,Innovation Center
119,,,,The Founder Institute,http://fi.co/,Innovation Center,Innovation Center
120,41.8838906,-87.62756429999999,111 North State Street,Chicago Fashion Incubator,http://www.chicagofashionincubator.org/,Innovation Center,Innovation Center
121,40.1035102,-88.23006559999999,270 Wohlers Hall MC-706,Illinois Launch,http://business.illinois.edu/ael/illaunch/index.html,Innovation Center,Innovation Center
122,40.510046200000005,-88.9870335,100 S Fell Ave,Center for Emerging Entrepreneurs,,Innovation Center,Innovation Center
123,37.702532,-89.216838,150 E. Pleasant Hill Road,Small Business Incubator Program,http://www.growsi.com/sbip/index.htm,Innovation Center,Innovation Center
124,39.841122,-88.9760531,1184 W Main St,The Hub,http://www.millikin.edu/academics/tabor/entrepreneurship/entrepreneurshipacademics/Pages/BusinessIncubator.aspx,Innovation Center,Innovation Center
125,41.7248532,-87.9733229,9700 S. Cass Avenue,Argonne National Laboratory,http://www.anl.gov,Innovation Center,Innovation Center
126,41.7248532,-87.9733229,Building 401,Advanced Photon Source,http://www.aps.anl.gov/,Innovation Center,Innovation Center
127,41.7248532,-87.9733229,Building 440,Center for Nanoscale Materials,http://nano.anl.gov/,Innovation Center,Innovation Center
128,41.7248532,-87.9733229,Building 212,Electron Microscopy Center,http://www.msd.anl.gov/groups/emc/,Innovation Center,Innovation Center
129,41.7248532,-87.9733229,Building 203,Argonne Tandem Linac Accelerator System,http://www.phy.anl.gov/atlas/,Innovation Center,Innovation Center
130,41.7248532,-87.9733229,Building 240,Argonne Leadership Computing Facility,http://www.alcf.anl.gov/,Innovation Center,Innovation Center
131,41.7248532,-87.9733229,Building 222,Transportation Research and Analysis Computing Center,http://web.anl.gov/TRACC/,Innovation Center,Innovation Center
132,41.7248532,-87.9733229,APS/ANL Building 432A,DuPont-Northwestern-Dow Collaborative Access Team,http://www.dnd.aps.anl.gov/,Innovation Center,Innovation Center
133,41.7248532,-87.9733229,Bldg 436A,Life Sciences Collaborative Access Team,http://ls-cat.org/index.html,Innovation Center,Innovation Center
134,41.7248532,-87.9733229,Bldg. 201,Office of Technology Transfer,http://web.anl.gov/techtransfer/index.html,Innovation Center,Innovation Center
135,41.8312,-88.25223000000001,Wilson and Kirk Roads,Fermi National Accelerator Laboratory,http://www.fnal.gov/,Innovation Center,Innovation Center
136,41.831093200000005,-87.6280182,10 W. 35th Street,Wanger Institute for Sustainable Energy Research (WISER),www.iit.edu/wiser,Innovation Center,Innovation Center
137,41.773019,-87.817757,6502 South Archer Road,Institute for Food Safety and Health,www.iit.edu/ifsh,Innovation Center,Innovation Center
138,42.056918200000005,-87.67670290000001,Ford Motor Company Engineering Center ,Farley Center for Entrepreneurship and Innovation,http://www.fcei.northwestern.edu/,Innovation Center,Innovation Center
139,42.057840999999996,-87.676976,"2145 Sheridan Road, TECH K111",Nanoscale Science and Engineering Center,http://www.nu-nsec.org/,Innovation Center,Innovation Center
140,42.057840999999996,-87.676976,"2145 Sheridan Road, TECH K111",Materials Research Science & Engineering Center,http://www.mrsec.northwestern.edu/,Innovation Center,Innovation Center
141,42.057840999999996,-87.676976,"2145 Sheridan Road, K111",International Institute for Nanotechnology ,http://www.iinano.org/,Innovation Center,Innovation Center
142,42.057840999999996,-87.676976,"2145 Sheridan Road, K111",Nanotechnology Corporate Partners program,http://www.iinano.org/content/Industry/index.htm,Innovation Center,Innovation Center
143,42.057840999999996,-87.676976,"2145 Sheridan Road, K111",IIN Small Business Entrepreneur's Evaluation,http://www.iinano.org/content/Industry/SBEE.htm,Innovation Center,Innovation Center
144,42.0577785,-87.6733929,2220 Campus Dr,Northwestern University Atomic and Nanoscale Characterization Experimental Center,http://www.nuance.northwestern.edu/,Innovation Center,Innovation Center
145,42.0564526,-87.6738007,Silverman Hall East Tower,"Nanoscale Integrated Fabrication, Testing, and Instrumentation (NIFTI)",http://www.nuance.northwestern.edu/nifti/index.html,Innovation Center,Innovation Center
146,42.057840999999996,-87.676976,"2145 Sheridan Road, TECH K111",Electron Probe Instrumentation Center (EPIC),http://www.nuance.northwestern.edu/epic/index.html,Innovation Center,Innovation Center
147,42.0577785,-87.6733929,2220 Campus Drive,Keck Interdiscplinary Surface Science Center,http://www.nuance.northwestern.edu/KeckII/index.html,Innovation Center,Innovation Center
148,42.057840999999996,-87.676976,EG20-NG32 Technological Institute ,Micro/Nano Fabrication Facility (NUFAB),http://nufab.northwestern.edu/,Innovation Center,Innovation Center
149,41.895646899999996,-87.62010740000001,303 E. Superior,Institute for BioNanotechnology in Medicine,http://www.ibnam.northwestern.edu/,Innovation Center,Innovation Center
150,42.0562294,-87.67346590000001,2170 Campus Dr.,Center for Molecular Innovation and Drug Discovery,http://www.cmidd.northwestern.edu/,Innovation Center,Innovation Center
151,42.0562294,-87.67346590000001,2170 Campus Dr.,Chemistry of Life Processes Institute,http://www.clp.northwestern.edu/,Innovation Center,Innovation Center
152,41.7893998,-87.5963929,Polsky Center for Entrepreneurship at The U of C Booth School of Business,Polsky Center for Entrepreneurship and Innovation,www.chicagobooth.edu/entrepreneurship,Innovation Center,Innovation Center
153,41.7893998,-87.5963929,Polsky Center for Entrepreneurship at The U of C Booth School of Business,Exploring Entrepreneurship Conference Series,http://www.chicagobooth.edu/entrepreneurship/conferences/other.aspx,Innovation Center,Innovation Center
154,41.7893998,-87.5963929,Polsky Center for Entrepreneurship at The U of C Booth School of Business,New Venture Challenge,http://research.chicagobooth.edu/nvc/,Innovation Center,Innovation Center
155,40.1149215,-88.22486040000001,1205 W. Clark St.,National Center for Supercomputing Applications,http://www.ncsa.illinois.edu/,Innovation Center,Innovation Center
156,,,405 North Mathews Avenue,Beckman Institute for Advanced Science and Technology,http://beckman.illinois.edu,Innovation Center,Innovation Center
157,40.090471,-88.223691,2100 South Goodwin Avenue,Illinois Simulator Laboratory,http://www.isl.beckman.illinois.edu/,Innovation Center,Innovation Center
158,40.1156835,-88.2267598,405 N. Mathews Ave,Biomedical Imaging Center,http://bic.beckman.illinois.edu,Innovation Center,Innovation Center
159,40.1156835,-88.2267598,405 N. Mathews Ave,ITG Visualization Laboratory,https://itg.beckman.illinois.edu/visualization_laboratory/,Innovation Center,Innovation Center
160,40.1156835,-88.2267598,405 N Mathews Avenue,Imaging Technology Group (ITG) Microscopy Suite,http://itg.beckman.illinois.edu/microscopy_suite/,Innovation Center,Innovation Center
161,40.1035102,-88.23006559999999,"270 Wohlers Hall, MC-706",Academy for Entrepreneurial Leadership,http://business.illinois.edu/ael/atillinois/index.html,Innovation Center,Innovation Center
162,40.11476629999999,-88.2267379,351 Coordinated Science Lab,Technology Entrepreneur Center,http://tec.illinois.edu/,Innovation Center,Innovation Center
163,40.11476629999999,-88.2267379,351 Coordinated Science Lab,Cozad New Venture Competition,http://tec.illinois.edu/cozad,Innovation Center,Innovation Center
164,40.1116153,-88.22396390000002,319 Ceramics Building,Office of Technology Management,http://otm.illinois.edu/,Innovation Center,Innovation Center
165,40.0911149,-88.24015440000001,60 Hazelwood Drive,I-Start program,http://www.researchpark.illinois.edu/resources/i-start-professional-service-assistance,Innovation Center,Innovation Center
166,41.8743225,-87.6585317,1240 W Harrison St.,UIC Innovation Center,http://www.uic.edu/depts/innovationcenter/,Innovation Center,Innovation Center
167,41.870544,-87.67134399999999,833 South Wood Street,NMR Facility at the Department of Medicinal Chemistry and Pharmacognosy,http://lab.pharm.uic.edu/nmr/,Innovation Center,Innovation Center
168,41.8694976,-87.64790529999999,845 W. Taylor St. ,"Microphysics Laboratory, Department of Physics",http://www.uic.edu/depts/mplab/,Innovation Center,Innovation Center
169,41.871520600000004,-87.6727085,1853 West Polk Street,Office of Technology Management,http://otm.uic.edu/,Innovation Center,Innovation Center
170,,,,Entrepreneurship at Illinois Portal,http://entrepreneurship.illinois.edu/index.html,Innovation Center,Innovation Center
171,42.050376,-87.682121,1800 Sherman Ave.,Innovation and New Ventures Office,http://invo.northwestern.edu/,Innovation Center,Innovation Center
172,41.8778533,-87.6268458,1 East Jackson Boulevard,Coleman Entrepreneurship Center,http://coleman.depaul.edu/,Innovation Center,Innovation Center
173,41.8778533,-87.6268458,Department of Management,The Center for Creativity and Innovation,http://innovation.depaul.edu/index.asp,Innovation Center,Innovation Center
174,41.8778533,-87.6268458,1 East Jackson Boulevard,Launch DePaul New Venture Competition,http://ent.depaul.edu/Coleman_Entrepreneurship_Cente/Launch_DePaul/index.asp,Innovation Center,Innovation Center
175,41.878468,-87.62714799999999,14 East Jackson,Office of Research Services,,Innovation Center,Innovation Center
176,40.5074101,-88.9930964,Illinois State University College of Business,George R. and Martha Means Center for Entrepreneurial Studies,http://business.illinoisstate.edu/means/,Innovation Center,Innovation Center
177,41.831093200000005,-87.6280182,10 West 35th Street,Knapp Entrepreneurship Center,http://www.stuart.iit.edu/entrepreneurship_academy/knapp_center/,Innovation Center,Innovation Center
178,41.831093200000005,-87.6280182,10 W. 35th St.,Office of Technology Transfer and Intellectual Property,http://www.iit.edu/research/services/ttip/,Innovation Center,Innovation Center
179,39.841122,-88.9760531,1184 W Main St.,Millikin University Entrepreneurship Center,http://www.millikin.edu/academics/tabor/entrepreneurship/Pages/default.aspx,Innovation Center,Innovation Center
180,39.727624299999995,-89.6142061,West University Court ,UIS Center for Entrepreneurship,http://www.uis.edu/cbam/featured/,Innovation Center,Innovation Center
181,39.4837448,-88.1752054,600 Lincoln Avenue ,Business Solution Center,http://www.eiu.edu/~bsc/index.php,Innovation Center,Innovation Center
182,41.884620399999996,-87.6365384,155 North Wacker Drive,Ernst & Young,http://www.ey.com,Innovation Center,Innovation Center
183,41.878096899999996,-87.6437545,626 West Jackson Blvd,IDEO,http://www.ideo.com/locations/chicago/,Innovation Center,Innovation Center
184,,,,Ninth Street Advisors,http://www.ninthstreetadvisors.com/,Innovation Center,Innovation Center
185,41.884541999999996,-87.655807,1144 West Randolph Street,"Otherwise, Inc.",http://www.otherwiseinc.com/,Innovation Center,Innovation Center
186,,,,Tech Cocktail,http://tech.co/,Innovation Center,Innovation Center
187,41.8855516,-87.63631009999999,191 N. Wacker Drive,Chicago Career Tech,http://www.chicagocareertech.com/,Innovation Center,Innovation Center
188,41.8898235,-87.62955720000001,415 N. Dearborn,i.c.stars,http://ww2.icstars.org/,Innovation Center,Innovation Center
189,38.87325379999999,-90.097495,101 East Edwardsville Rd.,Madison County Employment and Training,http://www.mcetd.org/,Innovation Center,Innovation Center
190,42.0846738,-87.9825501,6 East Miner Street,EmPowerHR,http://empowerhr.com/,Innovation Center,Innovation Center
191,41.888113,-87.63075500000001,321 North Clark Street,Foley & Lardner LLP,http://www.foley.com/chicago/,Innovation Center,Innovation Center
192,41.8747362,-87.62946290000001,542 South Dearborn Street,"Rachlis Durham Duff Adler & Peel, LLC",http://www.rddlaw.net/,Innovation Center,Innovation Center
193,41.896453,-87.6171256,Northwestern University School of Law,Entrepreneurship Law Center,http://www.law.northwestern.edu/legalclinic/elc/,Innovation Center,Innovation Center
194,41.897376,-87.62728620000001,Philip H. Corboy Law Center,The Business Law Clinic,http://www6.luc.edu/law/centers/business/clinic/index.html,Innovation Center,Innovation Center
195,41.879804,-87.628283,131 South Dearborn Street,Perkins Coie,http://www.perkinscoie.com/chicago/,Innovation Center,Innovation Center
196,,,,startupPerColator,http://www.startuppercolator.com/,Innovation Center,Innovation Center
197,41.8788515,-87.6364782,233 South Wacker Drive,Meyer Law,http://www.meyerlawgroup.com/,Innovation Center,Innovation Center
198,41.884683,-87.6310837,161 N. Clark Street ,Polsinelli Shughart,http://www.polsinelli.com/pflavin/,Innovation Center,Innovation Center
199,40.6897709,-89.5876656,100 SW Water Street,The Heartland Partnership,http://peoriabusiness.org/,Innovation Center,Innovation Center
200,41.9811221,-87.83784659999999,8430 W. Bryn Mawr Ave.,North Business & Industrial Council,http://www.norbic.org/,Innovation Center,Innovation Center
201,40.6897709,-89.5876656,100 SW Water Street,Economic Development Council for Central Illinois,http://www.centralillinois.org/,Innovation Center,Innovation Center
202,40.6897709,-89.5876656,100 SW Water Street,Peoria Area Chamber of Commerce,http://www.peoriachamber.org/,Innovation Center,Innovation Center
203,40.6897709,-89.5876656,100 SW Water Street,TransPORT,http://communitylink.com/peoria-illinois/2010/10/29/a-prime-location-for-logistics/,Innovation Center,Innovation Center
204,41.879185,-87.63117690000001,105 West Adams Street,Minority Business Development Agency (MBDA) Business Center Chicago,http://www.mbda.gov/,Innovation Center,Innovation Center
205,39.9283,-91.410927,300 Civic Center Plaza,Quincy Entrepreneurship Center,http://www.gredf.org/entrepreneurs/entrepreneurship-center/,Innovation Center,Innovation Center
206,42.3605037,-88.0099841,"Grayslake Campus - Technology Building, T317",The Workforce and Professional Development Institute,http://wpdi.clcillinois.edu/,Innovation Center,Innovation Center
207,,,,East Central Illinois University Center,http://www.researchpark.illinois.edu/resources/east-central-illinois-university-center,Innovation Center,Innovation Center
208,37.2690407,-89.0738254,8364 Shawnee College Road,SCC Center for Community and Economic Development,https://sites.google.com/a/shawneecc.edu/center-for-community-and-economic-development/about-us,Innovation Center,Innovation Center
209,41.93291,-87.69416,2800 N. Talman Ave.,Big Idea Forum,,Innovation Center,Innovation Center
210,41.889853,-87.6355433,222 West Hubbard Street,Built in Chicago,http://www.builtinchicago.org/,Innovation Center,Innovation Center
211,41.881237,-87.638849,10 South Riverside Plaza,Chicago Innovation Mentors,http://www.chicagoinnovationmentors.org,Innovation Center,Innovation Center
212,41.8883695,-87.63536450000001,222 W. Merchandise Mart Plaza,Chicagoland Entrepreneurial Center,http://www.chicagolandec.org/,Innovation Center,Innovation Center
213,41.88231079999999,-87.6328006,2 North LaSalle Street,Clean Energy Trust,http://www.cleanenergytrust.org/,Innovation Center,Innovation Center
214,41.886652000000005,-87.625514,65 East Wacker Place,iBIO Institute,http://www.ibioinstitute.org/,Innovation Center,Innovation Center
215,41.879211,-87.637199,200 S. Wacker Drive,Illinois Technology Association,http://www.illinoistech.org/,Innovation Center,Innovation Center
216,,,,Mobile Monday,http://www.momochicago.org/site/,Innovation Center,Innovation Center
217,,,,Entrepreneurs' Organization (EO) Chicago,http://eoaccess.eonetwork.org/chicago/Pages/default.aspx,Innovation Center,Innovation Center
218,42.2761939,-87.85431,402 Greenbay Road,BioAngels,http://www.bioangels.com/,Innovation Center,Innovation Center
219,,,,IxDA Chicago,http://www.ixdachicago.org/,Innovation Center,Innovation Center
220,41.793393,-88.21213399999999,30W265 Argyll,Midwest Entrepreneurs' Forum,http://www.midwestentrepreneursforum.org/,Innovation Center,Innovation Center
221,,,,Startup Illinois,http://www.s.co/region/illinois,Innovation Center,Innovation Center
222,,,,Startup Genome,http://www.startupgenome.com/state/il-us#&category_ids[]=2,Innovation Center,Innovation Center
223,41.880363,-87.628964,33 W. Monroe St,TiE Midwest,https://midwest.tie.org/,Innovation Center,Innovation Center
224,38.895243,-77.075409,1525 Wilson Blvd,TechAmerica,http://www.techamerica.org/,Innovation Center,Innovation Center
225,,,,CoFoundersLab,http://www.cofounderslab.com/,Innovation Center,Innovation Center
226,41.8881207,-87.63284990000001,300 N LaSalle St,Bootstrappers Breakfast,http://www.bootstrappersbreakfast.com/blog/category/chicago/,Innovation Center,Innovation Center
227,41.8961506,-87.634352,744 N. Wells St.,VentureShot,http://extraordinary-success.com/ventureshot,Innovation Center,Innovation Center
228,,,,Vistage,http://chicago.vistage.com/,Innovation Center,Innovation Center
229,,,,Founders Network,http://www.foundersnetwork.com/,Innovation Center,Innovation Center
230,,,,Business Network Chicago,http://www.bnchicago.org/,Innovation Center,Innovation Center
231,41.878419,-87.634102,200 W. Jackson Boulevard,Chicago Interactive Design & Development,http://www.meetup.com/Chicago-Interactive-Design-Development,Innovation Center,Innovation Center
232,41.8883695,-87.63536450000001,1871,Chicago Lean Startup Circle,http://www.chicagoleanstartup.com/,Innovation Center,Innovation Center
233,41.8883695,-87.63536450000001,1871,Chicago Women Developers,http://www.cwdevs.com/,Innovation Center,Innovation Center
234,41.878419,-87.634102,200 W Jackson Blvd,ChicagoRuby,http://www.chicagoruby.org/,Innovation Center,Innovation Center
235,,,,The Chicago Entrepreneur Meetup Group,http://www.meetup.com/ChicagoEntrepreneur/,Innovation Center,Innovation Center
236,,,,Funnl.ME,http://funnl.me/,Innovation Center,Innovation Center
237,40.6969219,-89.6167038,1501 West Bradley Avenue,Turner Center for Entrepreneurship,http://www.bradley.edu/academic/colleges/fcba/centers/turner/,Innovation Center,Innovation Center
238,41.6932523,-87.8354241,9000 W. College Pkwy. ,Business and Development Resource Center,http://www.morainevalley.edu/bdrc/,Innovation Center,Innovation Center
239,41.901353,-87.75119699999999,4950 W. Thomas,Bethel New Life Small Business Development Center,http://www.bethelnewlife.org/?page_id=66,Innovation Center,Innovation Center
240,41.464831,-90.5072379,4703 16th Street,Blackhawk College Small Business Development Center,http://www.bhc.edu/business-training/businesses/illinois-small-business-development-center/,Innovation Center,Innovation Center
241,40.6969219,-89.6167038,1501 West Bradley Avenue,Bradley University Small Business Development Center,http://www.bradley.edu/academic/colleges/fcba/centers/turner/developmentcenter/,Innovation Center,Innovation Center
242,40.093918,-88.2453098,1817 South Neil Street,Champaign County Economic Development Corporation Small Business Development Center,http://www.champaigncountyedc.org/business-services/small-business-services/counseling,Innovation Center,Innovation Center
243,41.8848719,-87.62143929999999,200 East Randolph Street ,Chicagoland Chamber of Commerce Small Business Development Center,http://chicagolandchamber.org/wdk_cc/programs_and_advocacy/small_business_.jsp,Innovation Center,Innovation Center
244,41.720942,-87.613606,9501 South King Drive,Chicago State University Small Business Development Center,http://www.csu.edu/sbdc/,Innovation Center,Innovation Center
245,40.1713898,-87.63059609999999,2917 North Vermillion,Danville Area Community College Small Business Development Center,http://www.dacc.edu/sbdc/,Innovation Center,Innovation Center
246,41.878413,-87.634504,216 West Jackson Boulevard,Duman Entrepreneurship Center Small Business Development Center/JVS Chicago,http://jvschicago.org/duman/,Innovation Center,Innovation Center
247,41.884538,-87.6637067,1436 W. Randolph St.,Accion Chicago,http://www.accionchicago.org/,Innovation Center,Innovation Center
248,41.809064,-88.102056,2525 Cabot Drive,College of DuPage Small Business Development Center,http://www.cod.edu/business_resources/entrepreneurship/sbdc/index.aspx,Innovation Center,Innovation Center
249,42.3605037,-88.0099841,19351 West Washington Street,College of Lake County Small Business Development Center,http://www.clcillinois.edu/depts/sbd.asp,Innovation Center,Innovation Center
250,42.017919899999995,-88.32213,1700 Spartan Drive,Elgin Community College Small Business Development Center,http://elgin.edu/business.aspx?id=1248,Innovation Center,Innovation Center
251,41.4493472,-87.7135595,College of Business,Governor's State University Small Business Development Center,http://www.centerpointgsu.com/,Innovation Center,Innovation Center
252,42.042239,-88.063725,650 East Higgins Road,Harper College Small Business Development Center,http://goforward.harpercollege.edu/business/sbdc/index.php,Innovation Center,Innovation Center
253,38.7310904,-88.08633990000001,218 East Main Street,Illinois Eastern Community College Small Business Development Center,http://www.glrppr.org/contacts/org_view.cfm?orgid=383,Innovation Center,Innovation Center
254,41.8790979,-87.6494276,855 West Adams Street,Illinois Hispanic Chamber of Commerce Small Business Development Center,http://www.ihccbusiness.net/services/illinoissbdc/,Innovation Center,Innovation Center
255,40.5074101,-88.9930964,413 State Farm Hall of Business,Illinois State University Small Business Development Center,http://business.illinoisstate.edu/sbdc/,Innovation Center,Innovation Center
256,41.3029326,-89.09734590000001,815 North Orlando Smith Avenue,Illinois Valley Community College Small Business Development Center,http://www.ivcc.edu/sbdc.aspx?id=3152,Innovation Center,Innovation Center
257,41.887434000000006,-87.677173,320 North Damen Avenue,Industrial Council of Nearwest Chicago Small Business Development Center,http://industrialcouncil.com/no-cost-programs-and-services/sbdc,Innovation Center,Innovation Center
258,41.5004782,-88.18043229999999,1215 Houbolt Road,Joliet Junior College Small Business Development Center,http://sbdcjjc.com/Pages/default.aspx,Innovation Center,Innovation Center
259,41.864844500000004,-87.8110162,7600 West Roosvelt,Joseph Center Small Business Development Center,http://josephcenter.homestead.com/,Innovation Center,Innovation Center
260,41.097367,-87.850628,100 College Drive,Kankakee Community College Small Business Development Center,http://www.kcc.edu/coned/sbdc/pages/default.aspx,Innovation Center,Innovation Center
261,38.52455820000001,-89.1336624,325 South Poplar,Kaskaskia College Small Business Development Center,http://www.kaskaskia.edu/ISBDC/Default.aspx,Innovation Center,Innovation Center
262,39.8005222,-89.64925229999999,8 South Old State Capitol Plaza,Lincoln Land Community College Small Business Development Center,http://www.llcc.edu/sbdc/SBDCHome/tabid/1440/Default.aspx,Innovation Center,Innovation Center
263,42.315498,-88.277801,4100 West Shamrock Lane,McHenry County College Small Business Development Center,http://www.shahcenter.mchenry.edu/sbdc.asp,Innovation Center,Innovation Center
264,41.981128000000005,-87.83765140000001,8420 Bryn Mawr Avenue,NORBIC Small Business Development Center,http://www.norbic.org/services/busDev/devService1.html,Innovation Center,Innovation Center
265,38.3206197,-88.9561296,327 Potomac Blvd,Rend Lake College Small Business Development Center,http://www.rlc.edu/sbdc,Innovation Center,Innovation Center
266,42.298881,-89.0695015,EIGERlab,Rock Valley College Small Business Development Center,http://www.rockvalleycollege.edu/Business/SBDC/index.cfm,Innovation Center,Innovation Center
267,37.2690407,-89.0738254,8364 Shawnee College Road,Shawnee Community College Small Business Development Center,http://sbdc.shawneecc.edu/illinois-small-business-development-center,Innovation Center,Innovation Center
268,37.7514576,-88.4365218,2 East Locust Street ,Southeastern Illinois College Small Business Development Center,http://www.sic.edu/audience/business-industry/small-business-development-center,Innovation Center,Innovation Center
269,37.702926,-89.2157219,1740 Innovation Drive,SIU-Carbondale Small Business Development Center,http://siusbdc.com/,Innovation Center,Innovation Center
270,38.795782,-89.9961385,Campus Box 1107,SIU-Edwardsville Small Business Development Center,http://www.siue.edu/business/sbdc/,Innovation Center,Innovation Center
271,38.6211633,-90.16188580000001,601 James R Thompson Blvd,SIU-E East St. Louis Small Business Development Center,http://www.siue.edu/eslc/business_development.shtml,Innovation Center,Innovation Center
272,41.87647,-87.648036,815 West Van Buren,UIC Small Business Development Center,http://business.uic.edu/academic-centers-and-research/cba-research-centers/institute-for-entrepreneurial-studies/il-sbdc-at-uic,Innovation Center,Innovation Center
273,41.7585303,-88.31757370000001,18 South River Street,Waubonsee Small Business Development Center,http://www.waubonsee.edu/learning/business/sbdc/,Innovation Center,Innovation Center
274,40.463629700000006,-90.66073709999999,510 North Pearl Street,Western Illinois University Small Business Development Center,http://www.wiusbdc.org/,Innovation Center,Innovation Center
275,41.881839899999996,-87.624895,8 S. Michigan Avenue,Women's Business Development Center,http://www.wbdc.org/,Innovation Center,Innovation Center
276,42.273345899999995,-89.091649,100 Park Avenue,Rockford Area International Trade Center,http://www.rockfordil.com/international/itc,Innovation Center,Innovation Center
277,41.852514,-87.671094,1800 West Cermak Road,Illinois Hispanic Chamber of Commerce Procurement Technical Assistance Center,http://www.ihccbusiness.net/services/illinois-procurement-technical-assistance-center/,Innovation Center,Innovation Center
278,39.938860999999996,-91.41116600000001,301 Oak Street,Illinois Procurement Technical Assistance Center of Central Illinois,http://champaigncounty.org/chamber/procurement.aspx,Innovation Center,Innovation Center
279,37.7487305,-89.0958337,700 Logan College Road,John A. Logan College Procurement Technical Assistance Center,http://www.jalc.edu/cbi/procurement_technical_assistance_center/index.php,Innovation Center,Innovation Center
280,,,,Invest Illinois Venture Fund (Advantage Illinois ),http://www.ildceo.net/dceo/Bureaus/Advantage+Illinois/Invest+Illinois+Venture+Fund/,Innovation Center,Innovation Center
281,,,,Capital Access Program (Advantage Illinois ),http://www.ildceo.net/dceo/Bureaus/Advantage+Illinois/Capital+Access+Program/,Innovation Center,Innovation Center
282,,,,Illinois Participation Loan Program (Advantage Illinois ),http://www.ildceo.net/dceo/Bureaus/Advantage+Illinois/Participation+Loan+Program/,Innovation Center,Innovation Center
283,,,,Collateral Support Program (Advantage Illinois ),http://www.ildceo.net/dceo/Bureaus/Advantage+Illinois/Collateral+Support+Program/,Innovation Center,Innovation Center
284,,,,Community Development Fund,http://www.ildceo.net/dceo/Bureaus/Business_Development/Loan+Programs/2-Commuitydevelopmentfund.htm,Innovation Center,Innovation Center
285,,,,Community Service Block Grant Loan Program,http://www.ildceo.net/dceo/Bureaus/Business_Development/Loan+Programs/3-biz-csbg.htm,Innovation Center,Innovation Center
286,,,,Emerging Technological Enterprises Grant Program,http://www.commerce.state.il.us/dceo/Bureaus/Technology/Technology+Grants+Programs/1-EmergingTechnology.htm,Innovation Center,Innovation Center
287,,,,Eliminate The Digital Divide Grant Program,http://www.commerce.state.il.us/dceo/Bureaus/Technology/Technology+Grants+Programs/4-Eliminate+the+Digital+Divide.htm,Innovation Center,Innovation Center
288,41.8851542,-87.62231829999999,180 N. Stetson,IFA Chicago,http://www.il-fa.com/,Innovation Center,Innovation Center
289,40.6897709,-89.5876656,100 SW Water Street,IFA Peoria,http://www.il-fa.com/,Innovation Center,Innovation Center
290,38.315140299999996,-88.9270954,2929 Broadway,IFA Mt. Vernon,http://www.il-fa.com/,Innovation Center,Innovation Center
291,39.79943370000001,-89.649316,500 East Monroe,IFA Springfield,http://www.il-fa.com/,Innovation Center,Innovation Center
292,41.882899,-87.64076,500 W. Madison Street,Chicago SBA District Office,http://www.sba.gov/about-offices-content/2/3161,Innovation Center,Innovation Center
293,39.7692645,-89.7155042,3330 Ginger Creek Road,Springfield SBA District Office,http://www.sba.gov/about-offices-content/2/3161,Innovation Center,Innovation Center
294,,,,General Small Business Loan Program,http://help.businessusa.gov/ics/support/default.asp?deptID=30030&ccontent=http://www.sba.gov/loans/business,Innovation Center,Innovation Center
295,,,,Microloan Program,http://help.businessusa.gov/ics/support/default.asp?deptID=30030&ccontent=http://www.sba.gov/loans/business,Innovation Center,Innovation Center
296,,,,CDC/504 Loan Program,http://help.businessusa.gov/ics/support/default.asp?deptID=30030&ccontent=http://www.sba.gov/loans/business,Innovation Center,Innovation Center
297,41.882899,-87.64076,500 W. Madison Street,Chicago SCORE,http://www.scorechicago.org/,Innovation Center,Innovation Center
298,40.4790616,-88.99361280000001,121 N Main St,Central Illinois SCORE,http://centralillinois.score.org/,Innovation Center,Innovation Center
299,39.841122,-88.9760531,1184 W. Main Street,Decatur SCORE,http://decatur.score.org/,Innovation Center,Innovation Center
300,40.0979715,-88.24712109999999,303 W. Kirby Avenue,ECI SCORE,http://eci.score.org/,Innovation Center,Innovation Center
301,41.787878000000006,-88.282825,1444 N. Farnsworth Avenue,Fox Valley SCORE,http://foxvalley.score.org,Innovation Center,Innovation Center
302,41.175936,-87.84168000000001,1690 Newtowne Drive,Kankakee Valley SCORE,http://kankakeevalley.score.org,Innovation Center,Innovation Center
303,42.298881,-89.0695015,EIGERlab,Northern Illinois SCORE,http://northernillinois.score.org,Innovation Center,Innovation Center
304,40.6897709,-89.5876656,Peoria Area Chamber of Commerce ,Peoria SCORE,http://peoria.score.org,Innovation Center,Innovation Center
305,41.506797,-90.509511,622 19th Street,Quad Cities SCORE,http://quadcities.score.org,Innovation Center,Innovation Center
306,39.9283,-91.410927,Chamber of Commerce ,Quincy Tri-State SCORE,http://quincytristate.score.org,Innovation Center,Innovation Center
307,39.4837448,-88.1752054,"Eastern Illinois Univ., 3106 Lumpkin Hall",Southeastern Illinois SCORE,http://southeasternillinois.score.org,Innovation Center,Innovation Center
308,37.748366499999996,-88.9778958,3000 W. DeYoung Street,Southern Illinois SCORE,http://southernillinois.score.org,Innovation Center,Innovation Center
309,39.7692645,-89.7155042,3330 Ginger Creek Drive,Springfield SCORE,http://springfieldil.score.org,Innovation Center,Innovation Center
310,38.9495924,-90.1906126,Alden Hall ,SW Illinois SCORE,http://swillinois.score.org,Innovation Center,Innovation Center
311,,,,Small Business Learning Center,http://www.sba.gov/sba-learning-center,Innovation Center,Innovation Center
312,,,,Small Business Innovation Research Program,http://www.sbir.gov/applicants,Innovation Center,Innovation Center
313,,,,Small Business Technology Transfer Program,http://www.sbir.gov/applicants,Innovation Center,Innovation Center
314,40.0911149,-88.24015440000001,60 Hazelwood Dr.,SBIR Technical Assistance Program,http://researchpark.illinois.edu/resources/sbir-technical-assistance-program,Innovation Center,Innovation Center
315,41.8969173,-87.6435474,600 West Chicago Ave.,Chicago Ideas Week,http://www.chicagoideas.com/,Innovation Center,Innovation Center
316,41.918341,-87.648165,2001 N. Halsted,Chicago Innovation Awards,http://www.chicagoinnovationawards.com/,Innovation Center,Innovation Center
317,,,,Entrepreneurs Unpluggd,http://entrepreneursunpluggd.com/,Innovation Center,Innovation Center
318,41.903052,-87.666781,1543 West Division Street,Funding Feeding Frenzy,http://fundingfeedingfrenzy.com/,Innovation Center,Innovation Center
319,41.8883695,-87.63536450000001,222 W. Merchandise Mart Plaza,Ignite Chicago,http://www.ignitechi.org/,Innovation Center,Innovation Center
320,,,,MIT Enterprise Forum,http://www.mitefchicago.org/,Innovation Center,Innovation Center
321,41.8969173,-87.6435474,Groupon,ORD Camp,http://ordcamp.com/,Innovation Center,Innovation Center
322,41.889685899999996,-87.62205859999999,Chicago Booth Gleacher Center,SeedCon,http://www.seedcon.com/,Innovation Center,Innovation Center
323,41.8883695,-87.63536450000001,1871,Startup Weekend Chicago,http://chicago.startupweekend.org/,Innovation Center,Innovation Center
324,41.889853,-87.6355433,222 West Hubbard St.,Tech Week,http://techweek.com/chicago/,Innovation Center,Innovation Center
325,,,,Technori,http://technori.com/,Innovation Center,Innovation Center
326,42.298881,-89.0695015,605 Fulton Ave.,TechWorks,http://www.eigerlab.org/techworks.html,Innovation Center,Innovation Center
327,42.271744,-89.09438399999999,Sullivan Theater,TEDxRockford,https://www.facebook.com/TEDxRockford,Innovation Center,Innovation Center
328,41.895771,-87.634553,200 West Superior Street,Chicago Lean Startup Challenge,http://chicagoleanchallenge.com/,Innovation Center,Innovation Center
329,41.889685899999996,-87.62205859999999,Chicago Booth Gleacher Center,SeedCon Fast-pitch Contest,http://www.seedcon.com/fastpitch.htm,Innovation Center,Innovation Center
330,41.8351924,-87.83877779999999,8400 W 31st St.,Brookfield Zoo,http://www.czs.org,Innovation Center,Innovation Center
331,41.8371602,-87.62695490000002,3201 S. Dearborn St.  ,"Department of Civil, Architectural, and Environmental Engineering ",http://www.iit.edu/engineering/cae/,Innovation Center,Innovation Center
332,,,,Illinois Open Technology Challenge,http://illinoisopentech.org/,Innovation Center,Innovation Center
333,41.8883695,-87.63536450000001,222 Merchandise Mart Plaza ,Illinois Science and Technology Coalition,http://istcoalition.org/,Innovation Center,Innovation Center
334,41.8883695,-87.63536450000001,1871,Open Gov Hack Night,http://opengovhacknight.eventbrite.com/,Innovation Center,Innovation Center
335,41.8883695,-87.63536450000001,1871,Startup Leadership Program Chicago,http://www.startupleadership.com/chapters/chicago,Innovation Center,Innovation Center
336,41.8883695,-87.63536450000001,1871,Chicago Data Visualization Group,http://www.meetup.com/The-Chicago-Data-Visualization-Group/,Innovation Center,Innovation Center
337,41.8883695,-87.63536450000001,1871,Chicago Women's Developers' Hack Night,http://www.meetup.com/WomanDevelopers/,Innovation Center,Innovation Center
338,41.7544479,-88.113791,1212 S. Naper Blvd.,Illinois Partners,http://illinoispartners.com/,Innovation Center,Innovation Center
339,,,,MeetAdvisors,http://www.meetadvisors.com/,Innovation Center,Innovation Center
340,,,,StarterPad,http://starterpad.com/,Innovation Center,Innovation Center
341,41.9326868,-87.64582320000001,659 W. Diversey,Amplify'd,http://csutil.statefarm.com/amplifyd/,Innovation Center,Innovation Center
342,39.1108737,-84.51570040000001,1411 Vine Street,The Brandery,http://brandery.org/,Innovation Center,Innovation Center
343,41.966602,-87.675075,4660 North Ravenswood Avenue,Insight Accelerator Labs,http://www.insightpd.com/insight-labs/,Innovation Center,Innovation Center
344,,,,Seed Chicago,http://www.kickstarter.com/pages/seedchicago,Innovation Center,Innovation Center
345,41.8846037,-87.6251204,66 East Randolph Street ,After School Matters,http://www.afterschoolmatters.org/,Innovation Center,Innovation Center
346,41.786021999999996,-87.595577,1740 Innovation Drive,CampCEO,http://sbdc.siu.edu/,Innovation Center,Innovation Center
347,41.7860223,-87.59557740000001,The Mott Building ,Collegiate Scholars Program,http://collegiatescholars.uchicago.edu/,Innovation Center,Innovation Center
348,41.87647,-87.648036,815 West Van Buren,Communities in Schools Chicago,http://www.chicagocis.org/home/index.asp,Innovation Center,Innovation Center
349,41.8969173,-87.6435474,600 W. Chicago Ave.,Future Founders Foundation,http://www.futurefounders.com/,Innovation Center,Innovation Center
350,41.8969173,-87.6435474,600 W. Chicago Ave.,Connect to the Future,http://futurefounders.com/programs/connect-to-the-future/,Innovation Center,Innovation Center
351,41.786522,-88.35526290000001,1500 Sullivan Rd.,CoolHub by IMSA,http://coolhub.imsa.edu/web/talent/what-is-talent,Innovation Center,Innovation Center
352,,,,Effingham CEO,http://www.effinghamceo.com/,Innovation Center,Innovation Center
353,,,,Hive Learning Network,http://www.hivechicago.org/,Innovation Center,Innovation Center
354,,,,Illinois Innovation Talent Program,http://www.isbe.net/,Innovation Center,Innovation Center
355,,,,Science WoRx ,http://www.astellas.us/social/community/scienceworx.html,Innovation Center,Innovation Center
356,41.8779187,-87.6519507,222 S. Morgan Street,The Network for Teaching Entrepreneurship,http://www.nfte.com/what/programs/chicago,Innovation Center,Innovation Center
357,39.841122,-88.9760531,1184 W. Main Street,iSmartGirls,http://www.millikin.edu/academics/tabor/entrepreneurship/ismart/Pages/default.aspx,Innovation Center,Innovation Center
358,41.887347,-87.62571700000001,65 E Wacker Place,EDUCATE Center,http://www.ibioed.org/,Innovation Center,Innovation Center
359,,,,CodeNow,http://codenow.org/,Innovation Center,Innovation Center
360,41.8759401,-87.6248936,430 S. Michigan Ave.,"Teen Entrepreneurship Academy, Roosevelt University",http://www.roosevelt.edu/Business/Academy.aspx,Innovation Center,Innovation Center
361,,,4043 N. Ravenswood Ave.,Jessica's Test,,Innovation Center,Innovation Center
362,41.885490000000004,-87.627769,177 N. State Street,World Business Chicago,http://www.worldbusinesschicago.com/,Innovation Center,Innovation Center
363,41.882707,-87.631169,28 North Clark Street,Tribeca Flashpoint Media Arts Academy,http://www.tfa.edu/,Innovation Center,Innovation Center
364,41.933985,-88.76401700000001,231 N. Annie Glidden Road,Technology Transfer Office,http://www.tto.niu.edu/tto/,Innovation Center,Innovation Center
365,41.7893998,-87.5963929,Polsky Center for Entrepreneurship at The U of C Booth School of Business,Polsky Center Accelerator Program,http://polskycenter.com/accelerator/,Innovation Center,Innovation Center
366,41.890308000000005,-87.62895400000001,22 W. Hubbard Street,Built In Chicago Startup Launch,http://www.builtinchicago.org/events/bic-launch,Innovation Center,Innovation Center
367,41.89864,-87.622754,875 North Michigan Avenue,Valor Equity Partners,http://www.valorep.com/,Innovation Center,Innovation Center
368,37.798493,-122.44983700000002,1 Letterman Drive,Breakout Labs,http://www.breakoutlabs.org/home.html,Innovation Center,Innovation Center
369,41.883852000000005,-87.632061,121 N. LaSalle St. ,Monthly Business Education Workshop,http://www.cityofchicago.org/city/en/depts/bacp/supp_info/business_educationworkshops.html,Innovation Center,Innovation Center
370,41.883852000000005,-87.632061,121 N. LaSalle St. ,Business Start-Up Certificate Program,http://www.cityofchicago.org/city/en/depts/bacp/supp_info/business_educationworkshops.html,Innovation Center,Innovation Center
371,,,,Rocket Fuel Labs,http://www.rocketfuellabs.com/,Innovation Center,Innovation Center
372,41.806582,-88.127227,Warrenville Rd.,Business Innovation Services,http://bis.illinois.edu/,Innovation Center,Innovation Center
373,41.858376,-87.660306,1647 South Blue Island,Cibola,http://buildcibola.wix.com/cibola,Innovation Center,Innovation Center
374,41.882079,-87.634442,200 W. Madison ,"Ocean Tomo, LLC",http://www.oceantomo.com/,Innovation Center,Innovation Center
375,41.945433,-87.706517,3519 N Elston Ave,Pumping Station One,http://pumpingstationone.org/,Innovation Center,Innovation Center
376,,,,StartupStay,https://startupstay.com/,Innovation Center,Innovation Center
377,41.889853,-87.6355433,222 W. Hubbard St.,Wavetable Labs,http://wavetable.com/,Innovation Center,Innovation Center
378,41.871520600000004,-87.6727085,1853 West Polk Street,Chancellor's Innovation Fund,http://otm.uic.edu/articles/2013-04-26/uic-chancellors-innovation-fund-highlighted-chicag,Innovation Center,Innovation Center
379,41.8877751,-87.6310507,316 North Clark Street,The 3D Printer Experience,http://www.the3DPrintereXperience.com/,Innovation Center,Innovation Center
380,,,,BizSpark,http://www.microsoft.com/bizspark/,Innovation Center,Innovation Center
381,41.8795749,-87.6415224,550 W. Adams St.,Licensing Executives Society - Chicago Chapter,http://www.lesusacanada.org/chapters/usa/chicago-chapter,Innovation Center,Innovation Center
382,,,,Center for Applied Innovation,http://www.appliedinnovation.org/,Innovation Center,Innovation Center
383,41.8993316,-87.9411183,111 Adell Place,Maddock Douglas,http://maddockdouglas.com/,Innovation Center,Innovation Center
384,41.8993316,-87.9411183,111 Adell Place,Ringleader Ventures,http://ringleaderventures.com/,Innovation Center,Innovation Center
385,41.6826648,-88.1076534,590 Territorial Drive,InSPIRE Illinois,http://www.inspireillinois.org,Innovation Center,Innovation Center
386,,,,StartupDigest,http://startupdigest.com/chicago/,Innovation Center,Innovation Center
387,41.881329,-87.63014100000001,Chase Auditorium,Technori Pitch,http://technori.com/pitch/,Innovation Center,Innovation Center
388,,,,ChicagoHour,http://www.chicagohour.com/,Innovation Center,Innovation Center
389,40.104138,-88.2301,607 East Gregory Drive,Illinois MakerLab,http://makerlab.illinois.edu/,Innovation Center,Innovation Center
390,41.773019,-87.817757,6502 South Archer Road,National Center for Food Safety and Technology,http://www.iit.edu/ifsh/research_centers/ncfst/,Innovation Center,Innovation Center
391,41.773019,-87.817757,6502 South Archer Road,Center for Nutrition Research,http://www.iit.edu/ifsh/research_centers/ncnr/,Innovation Center,Innovation Center
392,41.773019,-87.817757,6502 South Archer Road,Center for Processing Innovation,http://www.iit.edu/ifsh/research_centers/ncpi/,Innovation Center,Innovation Center
393,41.773019,-87.817757,6502 South Archer Road,IFSH Center for Specialty Programs,http://www.iit.edu/ifsh/research_centers/css/,Innovation Center,Innovation Center
394,41.990264,-87.717242,3525 West Peterson Avenue,Duman Entrepreneurship Center Small Business Development Center,http://jvschicago.org/duman/,Innovation Center,Innovation Center
395,,,60 Hazelwood Drive,Entrepreneurs-in-Residence,http://www.researchpark.illinois.edu/resources/entrepreneur-residence-program,Innovation Center,Innovation Center
396,41.886624499999996,-87.6351487,225 W. Wacker Drive,Illinois Venture Capital Association,http://www.illinoisvc.org/,Innovation Center,Innovation Center
397,41.949382,-87.673597,3711 N Ravenswood Ave,Deaf Communication,http://www.deafcomm.net,Innovation Center,Innovation Center
398,41.880774,-87.632138,39 S. LaSalle Street,Glines Associates,http://www.glinesassociates.com/,Innovation Center,Innovation Center
399,41.8883695,-87.63536450000001,222 Merchandise Mart Plaza,R&D STEM Learning Exchange,http://istcoalition.org/illinois-science-and-technology-institute/rd-stem-learning-exchange/,Innovation Center,Innovation Center
400,41.890122999999996,-87.63234,435 N Lasalle,ColorJar,www.colorjar.com,Innovation Center,Innovation Center
401,42.154070000000004,-88.133436,257 E Main Street,UBS Wealth Management,www.ubs.com/fa/markwimmer,Innovation Center,Innovation Center
402,41.935873,-87.63799499999999,320 W. Oakdale Avenue,"Global College Search Associates, LLC",globalcollegesearch.org,Innovation Center,Innovation Center
403,41.886838,-87.794443,104 N Oak Park Avenue,Oak Park Development Corporation,www.opdc.net,Innovation Center,Innovation Center
404,41.884931,-87.621996,Aon Center,Microsoft Technology Center Chicago,www.microsoft.com/mtc,Innovation Center,Innovation Center
405,41.890765,-87.624416,444 N. Michigan Ave,7wire Ventures,www.7wireventures.com,Innovation Center,Innovation Center
406,41.798590000000004,-88.201273,1630 W. Diehl Rd.,Grid Connect,gridconnect.com,Innovation Center,Innovation Center
407,41.8883695,-87.63536450000001,222 Merchandise Mart Plaza,Refresh Chicago,http://www.meetup.com/Refresh-Chicago,Innovation Center,Innovation Center
408,42.114211,-87.878357,2100 Sanders Rd,VentureLab,www.theventurelab.com,Innovation Center,Innovation Center
409,41.910334000000006,-87.680936,2125 W North Ave.,Center for Neighborhood Technology,http://www.cnt.org/,Innovation Center,Innovation Center
410,40.118271,-88.246835,306 W. Church Street,Meyer Capel,meyercapel.com,Innovation Center,Innovation Center
411,40.091115,-88.240154,60 Hazelwood Drive,CEO Roundtable,http://www.researchpark.illinois.edu/events/ceo-roundtable,Innovation Center,Innovation Center
412,40.091115,-88.240154,60 Hazelwood Drive,Designer-in-Residence,http://www.researchpark.illinois.edu/resources/designer-residence,Innovation Center,Innovation Center
413,,,2900 W. Main St.,Sustainable Business Center Incubator,www.sustainablebusinesscenter.com ,Innovation Center,Innovation Center
414,41.8883695,-87.63536450000001,222 Merchandise Mart Plaza,Starter School,http://www.starterleague.com/,Innovation Center,Innovation Center
415,41.7893998,-87.5963929,Polsky Center for Entrepreneurship at The U of C Booth School of Business,New Venture and Small Enterprise Lab,http://www.34701.org/,Innovation Center,Innovation Center
416,,,,The Junto Institute,http://thejuntoinstitute.com/,Innovation Center,Innovation Center
417,41.814192,-88.346238,812 Dogwood Drive,Environmental Leverage Inc.,www.environmentalleverage.com,Innovation Center,Innovation Center
418,40.0911149,-88.24015440000001,60 Hazelwood drive,cuDBug,http://cudbug.org/,Innovation Center,Innovation Center
419,42.298881,-89.0695015,605 Fulton Ave.,Center for Product Development,http://www.eigerlab.org/prototyping.html,Innovation Center,Innovation Center
420,,,,Startup Institute Chicago,http://chicago.startupinstitute.com/,Innovation Center,Innovation Center
421,40.0911149,-88.24015440000001,60 Hazelwood Drive,Champaign Organization of Developers and Engineers (C.O.D.E.),http://www.linkedin.com/groups/Champaign-Organization-Developers-Engineers-CODE-3725345/about,Innovation Center,Innovation Center
422,,,,AVIA,,Innovation Center,Innovation Center
423,41.882401,-87.637816,20 N. Wacker Drive,Illinois Technology Foundation,http://illinoistechfoundation.org/,Innovation Center,Innovation Center
424,,,,Ensemble,http://ensemblehq.com/,Innovation Center,Innovation Center
425,41.821973,-88.099362,501 Robinwood Lane,Breakthrough Results,www.break-through.us,Innovation Center,Innovation Center
426,41.889431,-87.803046,159 N. Marion,The Founding Moms,http://foundingmoms.com/,Innovation Center,Innovation Center
427,41.785863,-88.147289,,West Suburban Angels,http://www.westsuburbanangels.com/,Innovation Center,Innovation Center
428,,,3734 North Pine Grove Ave,WindyCitySDR,www.WindyCitySDR.com,Innovation Center,Innovation Center
429,42.098046000000004,-88.52232099999999,"376 E Jefferson, POB 549","Mountain Stream Group, Inc.",www.mountainstreamgroup.com,Innovation Center,Innovation Center
430,40.703199,-89.593358,1306 N. Berkeley Avenue,Jump Trading Simulation & Education Center,http://www.jumpsimulation.org/,Innovation Center,Innovation Center
431,,,,Biopharmix Consulting,www.biopharmixconsulting.com,Innovation Center,Innovation Center
432,,,,Fresh Startups,http://www.freshstartups.is/,Innovation Center,Innovation Center
433,,,,The Designation,http://www.thedesignation.co/,Innovation Center,Innovation Center
434,41.884089,-87.648064,813 W Randolph St,813 Launchpad,http://www.813launchpad.com,Innovation Center,Innovation Center
435,41.877874,-87.652835,1016 West Jackson Boulevard,Inspire Business Center,http://www.inspirebusinesscenter.com/,Innovation Center,Innovation Center
436,41.883283,-87.651816,954 W Washington Blvd,Onward Coworking,http://onwardcoworking.com/,Innovation Center,Innovation Center
437,40.088972999999996,-88.238754,2021 South First Street,Serra Ventures,http://www.serraventures.com/,Innovation Center,Innovation Center
438,42.241134,-88.31619599999999,P.O. Box 828,"Envision Sales & Marketing, Inc.",ESMsales.com,Innovation Center,Innovation Center
439,,,,Mission Main Street Grants,https://www.missionmainstreetgrants.com/,Innovation Center,Innovation Center
440,42.20255,-88.038855,One Corporate Drive,Product Development Technologies (PDT),www.pdt.com,Innovation Center,Innovation Center
441,41.879804,-87.628283,,Seyfarth Shaw LLP,http://www.seyfarth.com/Technology,Innovation Center,Innovation Center
442,,,,Aipil,www.aipil.com,Innovation Center,Innovation Center
443,,,IGNORE,OMS TEST LISTING,www.orbitmedia.com,Innovation Center,Innovation Center
444,,,Test,OMS TEST LISTING 2,Test,Innovation Center,Innovation Center
445,41.8883695,-87.63536450000001,222 W Merchandise Mart Plaza,The Starter League,http://starterleague.com,Innovation Center,Innovation Center
446,41.896916999999995,-87.643547,600 W Chicago Ave,Jump Capital,www.jump-capital.com,Innovation Center,Innovation Center
447,40.08943,-88.240302,2100 South Oak Street,Illinois Applied Research Institute,http://appliedresearch.illinois.edu/,Innovation Center,Innovation Center
448,41.910387,-87.681649, 2141 W North AveÛ_,Free Range Office,http://www.freerangeoffice.com/,Innovation Center,Innovation Center
449,41.839298,-88.100513,1749 S. Naperville Rd.,"Erickson Law Group, PC",www.ericksonlawgroup.com,Innovation Center,Innovation Center
450,42.045769,-87.6823,1560 Sherman Avenue,Northshore Process Service Network,http://northshoreprocess.wix.com/northshore,Innovation Center,Innovation Center
451,38.79072120000001,-89.9894748,One North Research Drive,Metro East Start-Up Challenge,http://www.siue.edu/metroeaststartup/index.shtml,Innovation Center,Innovation Center
452,41.85837,-87.660311,1647 S Blue Island Ave,BLUE1647,http://www.blue1647.com/,Innovation Center,Innovation Center
453,41.8883695,-87.63536450000001,222 Merchandise Mart Plaza,Chicago Startup Weekend,http://chicago.startupweekend.org/,Innovation Center,Innovation Center
454,41.831579999999995,-87.62802099999999,3440 S. Dearborn St.,Sigenics Inc.,www.sigenics.com,Innovation Center,Innovation Center
455,,,,Innovations 4 Entrepreneurs,http://business.comcast.com/i4e,Innovation Center,Innovation Center
456,41.877658000000004,-87.636196,311 S. Wacker Drive,Freeborn & Peters LLP,www.freeborn.com,Innovation Center,Innovation Center
457,41.874204,-87.682985,2242 W Harrison,"Health, Technology, and Innovation",http://research.uillinois.edu/HTI,Innovation Center,Innovation Center
458,41.883458000000005,-87.654761,114 N Aberdeen St,CivicLab,http://www.civiclab.us/,Innovation Center,Innovation Center
459,41.88231079999999,-87.6328006,2 North LaSalle Street,Clean Energy Challenge,http://www.cleanenergytrust.org/challenge/,Innovation Center,Innovation Center
460,41.890277000000005,-87.63224699999999,435 North LaSalle St,Unified Equity,http://www.unifiedequity.com/,Innovation Center,Innovation Center
461,41.889028,-87.63280400000001,350 N LaSalle St.,Wellspring Worldwide,http://www.wellspringworldwide.com/,Innovation Center,Innovation Center
462,40.13276,-88.217326,722 W Killarney St,Product Manufactory,http://www.theproductmanufactory.com/,Innovation Center,Innovation Center
463,,,,STEMfunder,http://www.stemfunder.com/,Innovation Center,Innovation Center
464,41.882264,-87.632828,2 N. LaSalle Street,Ms.Tech,http://ms-tech.co,Innovation Center,Innovation Center
465,41.882264,-87.632828,2 North LaSalle Street,Grind Spaces Chicago,http://grindspaces.com/,Innovation Center,Innovation Center
466,41.897247,-87.627903,1 E Pearson St.,Quinlan Social Enterprise Competition,http://www.luc.edu/quinlan/sec/,Innovation Center,Innovation Center
467,41.882707,-87.631169,28 N Clark St,Digital Professional Institute,digitalprofessionalinstitute.com,Innovation Center,Innovation Center
468,,,,,,Innovation Center,Innovation Center
469,41.802433,-88.131724,1120 E Diehl Road,Rev3 Innovation Center,www.rev3dupage.com,Innovation Center,Innovation Center
470,41.889148,-87.672775,1821 Hubbard,IAEOU,www.iaeou.me,Innovation Center,Innovation Center
471,,,1821 Hubbard,IAEOU,www.iaeou.me,Innovation Center,Innovation Center
472,41.880652000000005,-87.63209,1130 W Monroe St.,NewFrontier Holdings,http://www.nfholdings.com/,Innovation Center,Innovation Center
473,,,,,,Innovation Center,Innovation Center
474,41.799524299999995,-87.5899322,1452 E 53rd Street,Chicago Innovation Exchange,https://cie.uchicago.edu,Innovation Center,Innovation Center
475,40.685355,-89.598803,826B SW Adams,The Nest,www.thenestpeoria.co,Innovation Center,Innovation Center
476,41.939752,-87.685156,"2248 W. Belmont Ave, #38 ",Boone Management Group,http://boonemanagementgroup.com/,Innovation Center,Innovation Center
477,41.896916999999995,-87.643547,600 W. Chicago Ave,The Warehouse,http://www.thewarehousechi.com/,Innovation Center,Innovation Center
478,,,826B South West Adams Street,Project | Rocket Science,www.projectrocketscience.com,Innovation Center,Innovation Center
479,,,826B South West Adams Street,Startup Peoria,www.startupeoria.com,Innovation Center,Innovation Center
480,42.251247,-87.84043100000001,272 East Deerpath Road,Roundtable Healthcare Partners,http://www.otable.com,Innovation Center,Innovation Center
481,41.886619,-87.62755200000001,1 E. Wacker Drive,Shore Capital Partners,http://www.shorecp.com/,Innovation Center,Innovation Center
482,,,444 North Wabash Avenue,"Delaney Law, PC",http://delaney-law.com/,Innovation Center,Innovation Center
483,,,1016 W. Jackson Blvd.,A1 Active Care,http://a1activecare.com,Innovation Center,Innovation Center
484,41.88463,-87.63738599999999,150 North Wacker Drive,High Street Capital,http://www.highstreetcapital.com/,Innovation Center,Innovation Center
485,41.895872,-87.63550699999999,230 W Superior Street,NextSpace River North,http://nextspace.us/nextspace-river-north/,Innovation Center,Innovation Center
486,41.886006,-87.644775,650 W Lake St ,Catalyze Chicago,http://www.catalyzechicago.org/,Innovation Center,Innovation Center
487,42.271131,-89.09399499999999,,Code for Rockford,,Innovation Center,Innovation Center
488,,,,,,Innovation Center,Innovation Center
489,,,180 N. LaSalle Street,"The Law Offices of Marc J. Lane, P.C.",www.marcjlane.com,Innovation Center,Innovation Center
490,,,,Geek Breakfast,http://www.eigerlab.org/eigerlab-announces-a-new-networking-event-for-the-it-community-geek-breakfast-2/,Innovation Center,Innovation Center
491,41.8581268,-87.62382739999998,18th South Michigan Avenue ,Coalition: Energy,http://coalitionspace.microoffice.com/location/loop/,Innovation Center,Innovation Center
492,38.524552,-89.133648,325 South Poplar,Kaskaskia College Institute for Entrepreneurial Success Business Incubator ,https://www.kaskaskia.edu/ISBDC/INC.aspx,Innovation Center,Innovation Center
493,41.88837,-87.635364,222 W Merchandise Mart Plaza,MATTER,http://www.matterchicago.com/,Innovation Center,Innovation Center
494,42.1539334,-87.84103110000002,500 Lake Cook Road,"Law Office of Lesley A. Wallerstein, LLC",www.wallerstein-ip.com,Innovation Center,Innovation Center
495,,,30 W. Monroe Street,Straight North,http://www.straightnorth.com/,Innovation Center,Innovation Center
496,,,1016 W Jackson Blvd,Inspire Business Center,http://inspirebusinesscenter.com/,Innovation Center,Innovation Center
497,,,8025 Lamon Str,EcoFaire Accelerator,http://www.EcoFaireEnterprises.com,Innovation Center,Innovation Center
498,,,610 S Michigan Ave,celumium - The future of Brand and Product Management,http://www.celum.com/company/events/upcoming-events/view/celumium-chicago-2014,Innovation Center,Innovation Center
499,41.8883695,-87.63536450000001,222 West Merchandise Mart Plaza,Internet of Things Chicago Meet-Up,https://www.linkedin.com/groups/Internet-Things-IoT-Chicago-6706690,Innovation Center,Innovation Center
500,,,501 Kenyon Drive,"Diversity Agreements, PCS",www.diversityagreementspcs.com,Innovation Center,Innovation Center
501,,,,Operation: Startup,www.operationstartup.co,Innovation Center,Innovation Center
502,41.879659000000004,-87.62904499999999,131 South Dearborn Street,Beecken Petty O'Keefe & Company,http://bpoc.com/index.html,Innovation Center,Innovation Center
503,41.881157,-87.63772,20 South Wacker Drive,CME Group,http://www.cmegroup.com/liquidity-ventures.html,Innovation Center,Innovation Center
504,,,,Corazon Capital,https://sam-yagan.squarespace.com/about/,Innovation Center,Innovation Center
505,,,,,,Innovation Center,Innovation Center
506,41.925024,-87.943015,845 Larch Avenue,Duchossois Capital Management,http://www.dcmllc.com/,Innovation Center,Innovation Center
507,41.881186,-87.63744,30 South Wacker Drive,Creation Investments Capital Management LLC,http://creationinvestments.com/,Innovation Center,Innovation Center
508,,,,,,Innovation Center,Innovation Center
509,41.89954,-87.624471,900 N. Michigan Ave.,Edgewater Funds,http://edgewater.cierant.com/,Innovation Center,Innovation Center
510,41.894754999999996,-87.624649,676 N Michigan Avenue,Flexpoint Ford LLC,http://flexpointford.com/#home,Innovation Center,Innovation Center
511,,,,,,Innovation Center,Innovation Center
512,41.879633,-87.631869,135 South LaSalle Street,Frontenac Company,http://frontenac.com/,Innovation Center,Innovation Center
513,41.884157,-87.63647399999999,123 N. Wacker Drive,Geneva Glen Capital,http://www.genevaglencapital.com/,Innovation Center,Innovation Center
514,41.888121000000005,-87.63285,300 N. LaSalle St.,GTCR LLC,http://www.gtcr.com/,Innovation Center,Innovation Center
515,41.880958,-87.636352,71 S. Wacker Drive,Harrison Street Real Estate Capital,http://www.harrisonst.com/,Innovation Center,Innovation Center
516,41.894754999999996,-87.624649,676 North Michigan Ave,Lake Capital Management LLC,http://www.lakecapital.com/default.asp,Innovation Center,Innovation Center
517,41.882281,-87.630193,5710 Three First National Plaza,LaSalle Capital,http://www.lasallecapitalgroup.com/index.html,Innovation Center,Innovation Center
518,41.880164,-87.636483,111 S. Wacker Drive,Linden Capital Partners,http://www.lindenllc.com/,Innovation Center,Innovation Center
519,42.048193,-87.68132800000001,708 Church Street,Lionbird Ventures,http://lionbird.com/,Innovation Center,Innovation Center
520,41.882219,-87.64053,500 West Madison,Madison Capital Partners Corp.,http://madison.net/,Innovation Center,Innovation Center
521,41.8824,-87.6305,Three First National Plaza,Madison Dearborn Partners,http://www.mdcp.com/,Innovation Center,Innovation Center
522,41.888782,-87.63024300000001,353 North Clark Street,Mesirow Financial Private Equity,http://www.mesirowfinancial.com/privateequity/,Innovation Center,Innovation Center
523,42.153859000000004,-87.974958,750 Lake Cook Road,Mid Oaks Investments LLC,http://www.midoaks.com/index.html,Innovation Center,Innovation Center
524,,,,,,Innovation Center,Innovation Center
525,41.88541,-87.622597,180 North Stetson Avenue,Muller & Monroe Asset Management,http://www.m2am.com/,Innovation Center,Innovation Center
526,,,,,,Innovation Center,Innovation Center
527,41.885567,-87.63659200000001,191 North Wacker Drive,Prairie Capital LP,http://www.prairie-capital.com/index2.html,Innovation Center,Innovation Center
528,41.880469,-87.636437,111 South Wacker Drive,Pritzker Group Private Capital,http-//www.pritzkergroup.com/private-capital,Innovation Center,Innovation Center
529,41.882186,-87.63448000000001,200 West Madison Street,Prospect Partners,http://www.prospect-partners.com/,Innovation Center,Innovation Center
530,41.883312,-87.638821,100 N. Riverside Plaza,RCP Advisors,http://www.rcpadvisors.com/,Innovation Center,Innovation Center
531,42.045916,-87.682299,1560 Sherman Avenue,Silver Oaks Service Partners LLC,http://www.silveroaksp.com/,Innovation Center,Innovation Center
532,41.889469,-87.622828,401 N. Michigan Ave.,Sterling Partners,http://www.sterlingpartners.com/,Innovation Center,Innovation Center
533,41.882267,-87.635019,One North Franklin Street,Svoboda Capital Partners,http://www.svoco.com/,Innovation Center,Innovation Center
534,41.88337,-87.647874,810 West Washington Blvd,Synetro Group LLC,http://www.synetro.com/,Innovation Center,Innovation Center
535,41.890015999999996,-87.63265799999999,300 North La Salle Street,,http://www.thomabravo.com/,Innovation Center,Innovation Center
536,,,,,,Innovation Center,Innovation Center
537,41.880332,-87.634644,227 West Monroe Street,Victory Park Capital,http://www.victoryparkcapital.com/,Innovation Center,Innovation Center
538,41.886066,-87.635728,333 West Wacker Drive ,Water Street Healthcare Partners,http://waterstreet.com/,Innovation Center,Innovation Center
539,41.886066,-87.635728,300 North LaSalle Street,Waud Capital Partners,http://www.waudcapital.com/index.html,Innovation Center,Innovation Center
540,42.186578999999995,-87.802284,1850 Second Street,Waveland Investments,http://www.wavelandinvestments.com/index.html,Innovation Center,Innovation Center
541,41.894754999999996,-87.624649,676 N. Michigan Avenue,Wind Point Partners,http://www.wppartners.com/,Innovation Center,Innovation Center
542,41.993593,-87.861664,6250 North River Road,Wynnchurch Capital,http://www.wynnchurch.com/,Innovation Center,Innovation Center
543,,,,Small Business Loans,www.ezdinero.com,Innovation Center,Innovation Center
544,41.895259,-87.638966,405 West Superior Street,Coalition Impact,http://coalitionimpact.com/,Innovation Center,Innovation Center
545,,,,,,Innovation Center,Innovation Center
546,,,,,,Innovation Center,Innovation Center
547,41.896322,-87.66824799999999,1620 W Chicago Avenue,Building Blocks,http://bblocks.com/office-space-shared/,Innovation Center,Innovation Center
548,41.880489000000004,-87.630268,73 W Monroe Street,Level Office,http://www.leveloffice.com/co-working/,Innovation Center,Innovation Center
549,41.885394,-87.65357,1035 W Lake St,Forum Coworking,http://forumcoworking.com/,Innovation Center,Innovation Center
550,41.898205,-87.651563,935 W. Chestnut Street,Workshop Chicago LLC,http://workshopchicago.co/#home,Innovation Center,Innovation Center
551,41.889387,-87.653941,1046 West Kinzie Street,Enerspace Chicago,http://www.enerspacecoworking.com/about/,Innovation Center,Innovation Center
552,,,,,,Innovation Center,Innovation Center
553,41.890556,-87.62684899999999,444 N Wabash Avenue,Space,http://space.doejo.com/,Innovation Center,Innovation Center
554,,,,Design Cloud Chicago,http://designcloudchicago.com/,Innovation Center,Innovation Center
555,41.880852000000004,-87.629127,30 West Monroe,Workspring,https://www.workspring.com/,Innovation Center,Innovation Center
556,41.891061,-87.632018,116 W Illinois St.,New Coast Ventures,http://www.newcoastventures.com/,Innovation Center,Innovation Center
557,,,,,,Innovation Center,Innovation Center
558,41.956990000000005,-87.65209499999999,4101 N. Broadway,The Shift,http://www.theshiftchicago.com/,Innovation Center,Innovation Center
559,,,"555 8th Avenue, Suite 909 New York, New York 10018",Small Business Expo,http://www.thesmallbusinessexpo.com,Innovation Center,Innovation Center
560,,,419 Harvard Ct.,Attic Air,http://www.attic-air.com,Innovation Center,Innovation Center
561,,,,,,Innovation Center,Innovation Center
562,,,,Chicago Founder's Circle,http://www.chicagofounderscircle.com/,Innovation Center,Innovation Center
563,,,,Chicago Python User Group,http://www.chipy.org/,Innovation Center,Innovation Center
564,,,,Ms. Tech,http://ms-tech.co/about/,Innovation Center,Innovation Center
565,,,,Anyone Can Learn To Code,http://anyonecanlearntocode.com/home/about/,Innovation Center,Innovation Center
566,,,,New Idea Solutions Inc. - e-Commerce Patent Holder,www.newideasolutions.com,Innovation Center,Innovation Center
567,41.87337,-87.65071400000001,100 South Morgan Street ,Brooklyn Boulders Chicago,http://brooklynboulders.com/chicago/,Innovation Center,Innovation Center
568,,,8025 Lamon Str,"EcoFaire Enterprises, Inc.",http://www.ecofaireenterprises.com/,Innovation Center,Innovation Center
569,,,112 Merion Drive,"Technori Pitch, EnterpriseWorks Incubator",,Innovation Center,Innovation Center
570,,,,Coding While Black,https://codingwhileblack.com/,Innovation Center,Innovation Center
571,,,,,,Innovation Center,Innovation Center
572,,,222 W. Merchandise Mart Plaza,The Bunker,www.bunkerincubator.com,Innovation Center,Innovation Center
573,,,1130 West Monroe Street,BuiltWorlds ,www.builtworlds.com,Innovation Center,Innovation Center
574,,,2820 Center St.,"Derk Harmsen Construction Co., Inc.",http://dhconstruction.com,Innovation Center,Innovation Center
575,,,655 Deerfield Rd.,StackTalent,www.stacktalent.com,Innovation Center,Innovation Center
576,,,20 North Wacker Drive,New Peak Solutions,www.newpeaksolutions.com,Innovation Center,Innovation Center
577,39.801835,-89.648055,"531 East Washington Street, 5th Floor",Broadband Illinois,http://www.broadbandillinois.org/index.html,Innovation Center,Innovation Center
578,41.831284000000004,-87.627224,"10 W 35th St, 10th Floor",Chicago Council on Science and Technology,http://www.c2st.org/,Innovation Center,Innovation Center
579,41.878807,-87.63600500000001,233 South Wacker Drive,Chicago Metropolitan Agency for Planning,http://www.cmap.illinois.gov/about,Innovation Center,Innovation Center
580,41.882902,-87.629876,69 W. Washington,Chicago Metro Metal Consortium,http://www.chicagometrometal.org/,Innovation Center,Innovation Center
581,41.809025,-88.10185600000001,"2525 Cabot Drive,",Choose DuPage,http://choosedupage.com/,Innovation Center,Innovation Center
582,41.883045,-87.635689,309 West Washington Street,Citizens Utility Board,http://www.citizensutilityboard.org/,Innovation Center,Innovation Center
583,41.883793,-87.631528,118 N. Clark Street,Cook County Government,http://www.cookcountyil.gov/about-cook-county/,Innovation Center,Innovation Center
584,41.886652000000005,-87.625514,65 East Wacker Place,Illinois Biotechnology Industry Organization,http://www.ibio.org/,Innovation Center,Innovation Center
585,39.799285,-89.649179,500 E. Monroe,Department of Commerce & Economic Opportunity ,http://www.illinois.gov/dceo/,Innovation Center,Innovation Center
586,40.696444,-89.616008,1501 W. Bradley Avenue,Illinois Manufacturing Excellence Center,http://www.imec.org/index.cfm,Innovation Center,Innovation Center
587,41.846261,-87.948975,1211 W. 22nd St.,Illinois Manufacturers' Association,http://www.ima-net.org/,Innovation Center,Innovation Center
588,41.881457,-87.624898,18 South Michigan Avenue, Illinois Science and Energy Innovation Foundation,http://www.iseif.org/,Innovation Center,Innovation Center
589,38.79032,-89.991692,200 University Park Drive,Leadership Council Southwestern Illinois,http://www.leadershipcouncilswil.com/,Innovation Center,Innovation Center
590,40.689803000000005,-89.58762,100 SW Water Street,Peoria Specialized Manufacturing Strategy Group ,http://tinyurl.com/kgh7rkb,Innovation Center,Innovation Center
591,,,,,,Innovation Center,Innovation Center
592,41.509278,-90.515664,1601 River Dr.,Quad Cities Chamber of Commerce,http://www.quadcitieschamber.com/,Innovation Center,Innovation Center
593,41.515784000000004,-90.547087,1322 Gillespie St.,Quad City Manufacturing Laboratory,http://qcml.org/index.html,Innovation Center,Innovation Center
594,42.273346000000004,-89.091649,100 Park Avenue,Rockford Area Economic Development Council,http://www.rockfordil.com/,Innovation Center,Innovation Center
595,41.886452,-87.623977,225 N Michigan,Smart Chicago Collaborative,http://www.smartchicagocollaborative.org/,Innovation Center,Innovation Center
596,41.831579999999995,-87.62802099999999,3440 South Dearborn Street,Smart Grid Cluster,http://smartgridcluster.com/,Innovation Center,Innovation Center
597,40.078582,-82.879703,5015 Pine Creek Drive,SSTI,http://ssti.org/,Innovation Center,Innovation Center
598,38.627332,-90.18953499999999,1 Metropolitan Square,St. Louis Regional Chamber of Commerce,http://www.stlregionalchamber.com/,Innovation Center,Innovation Center
599,41.808803999999995,-88.126612,1100 E Warrenville Rd,UI Business Innovation Services,http://bis.illinois.edu/,Innovation Center,Innovation Center
600,42.256591,-88.839453,401 Whitney Blvd,Growth Dimensions,http://www.growthdimensions.org/,Innovation Center,Innovation Center
601,42.271147,-89.095047,308 West State Street,IGNITE Young Professionals,http://igniterockford.com/,Innovation Center,Innovation Center
602,42.273559999999996,-89.092679,313 N Main Street,Rockford Metropolitan Agency for Planning,http://www.rmapil.org/,Innovation Center,Innovation Center
603,42.271147,-89.095047,308 W State Street,Rockford Chamber of Commerce,http://www.rockfordchamber.com/,Innovation Center,Innovation Center
604,42.273185,-89.092611,"303 N Main, Suite 110 Rockford, IL",Northwest Illinois Development Alliance,http://transformrockford.org/,Innovation Center,Innovation Center
605,42.297785,-89.62089300000001,27 W. Stephenson Street,Northwest Illinois Workforce Alliance,http://www.nidaworks.com/,Innovation Center,Innovation Center
606,42.271516,-89.09460899999999,102 North Main Street,Rockford River District Association,http://riverdistrict.com/,Innovation Center,Innovation Center
607,42.267137,-89.020611,,NEXT Rockford,,Innovation Center,Innovation Center
608,42.281214,-89.057546,100 Park Avenue,Rockford Region Economic Development District,http://www.myedd.org/index.php,Innovation Center,Innovation Center
609,42.298725,-89.069862,605 Fulton Avenue,Stateline Angels,http://www.statelineangels.com/,Innovation Center,Innovation Center
610,42.308102000000005,-88.99559599999999,3301 North Mulford Road,The Business and Professional Institute of Rock Valley College ,http://www.rockvalleycollege.edu/Business/bpi.cfm,Innovation Center,Innovation Center
611,42.298725,-89.069862,605 Fulton Avenue,Illinois PTAC at RVC,http://www.rockvalleycollege.edu/Business/PTAC/index.cfm,Innovation Center,Innovation Center
612,,,,State of Ingenuity,http://www.soisourcelink.com/,Innovation Center,Innovation Center
613,42.273838,-88.949188,8500 E. State St.,NIU-Rockford,http://www.niu.edu/outreach/Regional_Centers/rockford.shtml,Innovation Center,Innovation Center
614,,,,,,Innovation Center,Innovation Center
615,41.880093,-87.62466500000001,122 S. Michigan Ave.,NIN Ventures LLC,https://nin.vc/index.php,Innovation Center,Innovation Center
616,,,3839 N Western Ave,WebVision,http://www.gowebvision.com/,Innovation Center,Innovation Center
617,41.885079,-87.62174300000001,200 E Randolph Street,CityWorks,http://cityworks.org/,Innovation Center,Innovation Center
618,41.890679,-87.624573,444 N. MICHIGAN AVE.,BeOffice,http://beoffice.com/,Innovation Center,Innovation Center
619,41.799526,-87.589845,1452 E. 53rd St.,Cisco Entrepreneurs in Residence,https://eir.cisco.com/,Innovation Center,Innovation Center
620,42.034649,-87.679823,900 Chicago Avenue,CoLab,http://colabevanston.com/,Innovation Center,Innovation Center
621,42.046834000000004,-87.684661,922 Davis Street,Creative Coworking,http://creativecoworking.com/,Innovation Center,Innovation Center
622,41.937861,-87.64895899999999,3033 N Clark Street,Desk Labs,http://www.desklabs.com/,Innovation Center,Innovation Center
623,41.885079,-87.62174300000001,200 E Randolph Street,Digital Manufacturing and Design Innovation Institute,dmdii.org,Innovation Center,Innovation Center
624,41.88837,-87.635364,222 W. Merchandise Mart Plaza,Elmspring,http://elmspringaccelerator.com/,Innovation Center,Innovation Center
625,41.958669,-87.744163,4255 North Knox Avenue,Fort Knox,http://www.fortknoxstudios.com/,Innovation Center,Innovation Center
626,,,2301 S. Lake Shore Drive,IRCE,http://www.irce.com/?gclid=CLy97d7ducICFQIQ7AodQCoArQ,Innovation Center,Innovation Center
627,41.88706,-87.67804,2000 West Fulton Street,Fulton Street Collective,http://www.fultonstreetcollective.com/,Innovation Center,Innovation Center
628,41.88857,-87.63553,222 W. Merchandise Mart Plaza,Good Food Business Accelerator,http://www.goodfoodaccelerator.org/,Innovation Center,Innovation Center
629,41.949681,-87.673469,3717 North Ravenswood Avenue,Indie City Co-op,indiecitycoop.com/ ,Innovation Center,Innovation Center
630,41.88837,-87.635364,222 W. Merchandise Mart Plaza,Leap Innovations,http://www.leapinnovations.org/,Innovation Center,Innovation Center
631,41.933238,-87.714763,2864 N Milwaukee Ave,Logan Share,http://loganshare.com/,Innovation Center,Innovation Center
632,41.876178,-87.62826,400 S State Street,Maker Lab - Chicago Public Library,,Innovation Center,Innovation Center
633,41.88942,-87.651752,401 North Morgan,Morgan Manufacturing,http://www.401morganmfg.com/,Innovation Center,Innovation Center
634,41.883409,-87.642179,560 W WASHINGTON BLVD,OFFSITE Chicago,http://chicago.gooffsite.com/,Innovation Center,Innovation Center
635,42.165334,-87.921601,1020 Milwakee Ave,Platform Venture,http://www.platformventure.com/,Innovation Center,Innovation Center
636,41.831042,-87.65653499999999,1200 W 35th Street,Project Onward,http://projectonward.org/,Innovation Center,Innovation Center
637,41.784081,-87.612988,500 E. 61st St.,Sunshine Enterprises ,http://www.sunshinegospel.org/,Innovation Center,Innovation Center
638,,,,,,Innovation Center,Innovation Center
639,41.810767999999996,-87.660576,1400 W. 46th St.,The Plant,http://www.plantchicago.com/,Innovation Center,Innovation Center
640,41.886596999999995,-87.67331999999999,1837 W Fulton,The Study Chicago,http://thestudychicago.org/,Innovation Center,Innovation Center
641,,,,,,Innovation Center,Innovation Center
642,42.02708,-87.749399,8025 Lamon Avenue,Technology Innovation Center - Skokie,http://www.theincubator.com/,Innovation Center,Innovation Center
643,41.886534999999995,-87.62691,35 E Upper Wacker Dr ,Treehouse ,http://www.treehouse.vc/,Innovation Center,Innovation Center
644,41.794406,-87.619202,301 E Garfield Boulevard,Washington Park Arts Incubator,https://arts.uchicago.edu/artsandpubliclife/ai,Innovation Center,Innovation Center
645,,,,,,Innovation Center,Innovation Center
646,41.779396999999996,-87.64552900000001,815 W. 63rd Street,Englewood BLUE Business Accelerator,http://www.blue1647.com/,Innovation Center,Innovation Center
647,,,,www.chicagoworkforce.com,www.yahoo.com,Innovation Center,Innovation Center
648,,,7856 Goguen Drive,Charles Signs,http://www.charlessigns.com,Innovation Center,Innovation Center
649,,,"9000 Lincoln Street,",Brickshire Apartments,http://brickshireapartments.com,Innovation Center,Innovation Center
650,,,14507 Sylvan Street Suite 202,LilÛª Zekes Bail Bonds,http://www.lilzekesbailbonds.com,Innovation Center,Innovation Center
651,,,"465 N. Roxbury Dr., Penthouse Suite- A",Ruth Swissa Permanent Make Up,http://ruthswissa.com/beverlyhills-ca-permanentmakeup/,Innovation Center,Innovation Center
652,,,50 Park Plaza,David Barton Gym ÛÒ Boston,http://www.davidbartongym.com/boston,Innovation Center,Innovation Center
653,,,191 N Wacker Drive,Skills for Chicagoland's Future,www.skillsforchicagolandsfuture.com,Innovation Center,Innovation Center
654,41.886078000000005,-87.649007,210 N Green Street,WeWork Chicago,https://www.wework.com/locations/chicago/west-loop,Innovation Center,Innovation Center
655,,,"23341 N Pima Rd, Ste D139","Jeremy Mueller Insurance Agency, Inc.",https://www.statefarm.com/agent/US/AZ/Scottsdale/Jeremy-Mueller-JGFB423V000,Innovation Center,Innovation Center
656,,,151 E 22nd St,Digital Marketing ,www.marqana.com,Innovation Center,Innovation Center
657,,,180 North Upper Wacker Drive,Marketing,http://www.someconnect.com,Innovation Center,Innovation Center
658,41.903714,-87.630972,1165 N Clark Street,Assemble Chicago,http://www.assemblesharedoffice.com/locations/1165-n-clark-st-chicago/,Innovation Center,Innovation Center
659,41.878184999999995,-87.642904,600 W Jackson ,Assemble Chicago,http://www.assemblesharedoffice.com/locations/600-w-jackson-chicago/,Innovation Center,Innovation Center
660,,,,,,Innovation Center,Innovation Center
661,,,940 Carissa Ct.,SallyÛªs Residential Care Home,http://www.sallyscarehome.com/camarillo-ca-assisted-living-facility.php,Innovation Center,Innovation Center
662,,,,,,Innovation Center,Innovation Center
